uuid,name,group,begin,end,hours,20151122,20151123,20151124,20151125,20151126,20151127,20151128,20151129,20151130,20151201,20151202,20151203,20151204,20151205,20151206,20151207,20151208,20151209,20151210,20151211,20151212,20151213,20151214,20151215,20151216,20151217,20151218,20151219,20151220,20151221,20151222,20151223,20151224,documenturl,description,location,city,street,zip,organizer,org_city,org_address,org_zip,web,org_contact,phone,email,facebook,lat,lng,fee,remarks,todo,transit
100,Weihnachten bei den Buddenbrooks,-,2015-11-22,2015-11-22,11:00,11:00,,,,,,,,,,,,,,,,,,,,,,,,,,,,,,,,,http://www.moers.de/de/veranstaltungen/weihnachten-bei-den-buddenbrooks-eine-lesung-mit-joerg-zimmer/,,Peschkenhaus,Moers,Meerstraße 1,47441,Moerser Gesellschaft zur Förderung des literarischen Lebens e.V.,,,,http://www.moersergesellschaft.de,,,info@moersergesellschaft.de,,51.451709,6.624833,Vorverkauf 8 Euro<br>Tageskasse 10 Euro,"<p>Festlich und amüsant geht es zu im sogenannten Weihnachtskapitel von Thomas Manns „Buddenbrooks“. Der Literaturnobelpreisträger nimmt darin die Perspektive der Kinder ein, wenn er Hanno Buddenbrooks Begegnung mit dem Knecht Ruprecht und seine Beobachtungen am Heiligen Abend schildert. Er macht die Anspannung der Erwachsenen fühlbar, die sich darum sorgen, dass alles gelingt. Und er blendet humorvoll die Malheurs einiger Prota gonisten ein.</p><p>Rezitator Jörg Zimmer liest aus dem berühmten Roman. In der Pause werden Gebäck und Getränke gereicht.</p>",ready,
2,Moerser Weihnachtsmarkt,!,2015-11-26,2015-12-22,Mo-Do 11:00-20:00<br>Fr-So 11:00-21:00,,,,,11:00-20:00,11:00-21:00,11:00-21:00,11:00-21:00,11:00-20:00,11:00-20:00,11:00-20:00,11:00-20:00,11:00-21:00,11:00-21:00,11:00-21:00,11:00-20:00,11:00-20:00,11:00-20:00,11:00-20:00,11:00-21:00,11:00-21:00,11:00-21:00,11:00-20:00,11:00-20:00,11:00-20:00,11:00-20:00,11:00-21:00,11:00-21:00,11:00-21:00,11:00-20:00,11:00-20:00,,,http://www.moers.de/de/veranstaltungen/moerser-weihnachtsmarkt-3224274/,,Kastellplatz,Moers,Kastell,47441,Moers Marketing GmbH,Moers,Homberger Straße 4,47441,http://www.moers-stadtportal.de,,0 28 41 / 88 22 6-13,info@moers-marketing.de,,51.4496320,6.6252240,,"<p>Bereits seit 1976 stimmt die Stadt Moers auf dem Kastellplatz vor der malerischen Kulisse des Schlosses die Besucherinnen und Besucher auf das Fest ein.</p><p>Das Angebot ist ausgewogen: Neben kulinarischen Highlights verkaufen Händler in der Budenstadt Kunsthandwerk, edle Weihnachtskugeln, Handwerkskunst aus dem Erzgebirge, Weihnachtskrippen, Silber- und Modeschmuck.</p><p>Die Eisbahn verführt Jung und Alt zu einer „Rutschpartie"", und auf der großen Bühne sorgen zahlreiche Musikgruppen für gelungene Unterhaltung.</p>",mail,
30,Der Sparkassen-Weihnachtsclub,-,2015-11-27,2015-11-28,20:00,,,,,,20:00,20:00,,,,,,,,,,,,,,,,,,,,,,,,,,,http://www.moers.de/de/veranstaltungen/comedyarts-spezial-der-sparkassen-weihnachtsclub/,,Bollwerk 107,Moers,Homberger Straße 107,47441,Bollwerk 107,Moers - Mitte,Homberger Straße 107,47441,http://www.bollwerk107.de,,0 28 41 / 169 257 - 0,info@bollwerk107.de,https://www.facebook.com/bollwerk107,51.452700,6.640323,VVK 22 Euro (zzgl. Gebühren)<br>AK 26 Euro,"<p>Das Internationale ComedyArts Festival präsentiert: Den Sparkassen-Weihnachtsclub!</p><p>Die etwas andere Varieté-Show: Komik und Artistik in bester ComedyArts Tradition. Feiern Sie die Vorweihnachtszeit mit Humor! Dieses Jahr mit:</p><p>Ingo Oschmann, Der Comedian und bekennende Moers-Fan war zweimal Publikumslieblinge des Festivals.</p><p>Hinz & Kunz, Zwei ungleiche Virtuosen und Meister der Musik-Comedy intonieren unerhörte Weihnachtslieder.</p><p>Stephan Masur, Als schriller Adliger ""Le Comte“ zeigt der Artist Können auf dem Drahtseil und andere ungewöhnliche Kunststücke.</p><p>Moderation: Duo Diagonal, Diese wilde Mischung wird wie immer glamourös zusammengehalten von den Experten für gehobenen Slapstick.</p><p>Beginn: jeweils 20 Uhr, Einlass 19.30 Uhr</p>",ready,
101,Der kleine Hase im Weihnachtswald,-,2015-11-28,2015-11-28,11:30-12:30,,,,,,,11:30-12:30,,,,,,,,,,,,,,,,,,,,,,,,,,,http://www.moers.de/de/veranstaltungen/veranstaltung-zum-projekt-lesestart-der-kleine-hase-im-weihnachtswald-von-rebecca-harry-bilderbuchkino-und-basteln-mit-ina-wilmsmann-nur-fuer-kinder-rund-um-das-3.-lebensjahr-2290541/,,"Bibliothek, Kinder- und Jugendbibliothek",Moers,Wilhelm-Schroeder-Straße 10,47441,"Bibliothek, Zentrale",Moers,Wilhelm-Schroeder-Straße 10,47441,http://www.bibliothek-moers.de,,0 28 41 / 201-742,bibliothek@moers.de,https://www.facebook.com/BibliothekMoers,51.4532300,6.6320400,Eine vorherige Anmeldung ist erforderlich<br>2 Euro für das Material,"<p>Veranstaltung zum Projekt ""Lesestart"": Der kleine Hase im Weihnachtswald von Rebecca Harry - Bilderbuchkino und Basteln mit Ina Wilmsmann- nur für Kinder rund um das 3. Lebensjahr</p><p>Schneehäschen Flöckchen wünscht sich einen Freund! Also macht es sich auf den Weg zum Weihnachtsmann …</p><p>Eine vorherige Anmeldung ist erforderlich, für das Material wird ein Kostenbeitrag von 2 Euro erhoben.</p><p>Informationen und Anmeldung unter Telefonnummer 0 28 41 / 201-751 oder direkt in der Bibliothek Moers.</p>",ready,
29,Adventsmarkt in Moers-Asberg,-,2015-11-29,2015-11-29,11:00-18:00,,,,,,,,11:00-18:00,,,,,,,,,,,,,,,,,,,,,,,,,,http://www.moers.de/de/veranstaltungen/adventsmarkt-in-moers-asberg/,,Asberg,Moers,Im verkehrsberuhigten Kernbereich der Konstantinstraße,47441,"Fett, Wolfgang",Moers,Bonifatiusstraße 95,47441,http://,,0 28 41 / 5 21 47,falcofett@googlemail.com,,51.440549,6.661338,,<p>Weihnachtsmarkt im verkehrsberuhigten Kernbereich der Konstantinstraße</p>,mail,
38,Adventskonzert,-,2015-11-29,2015-11-29,17:00,,,,,,,,17:00,,,,,,,,,,,,,,,,,,,,,,,,,,http://www.moers.de/de/veranstaltungen/adventskonzert-5944727/,,Kath. Pfarrkirche St. Josef,Moers,Kastell 13,47441,Moerser Musikschule,MOERS,Filder Straße 126,47447,http://www.moerser-musikschule.de,,0 28 41 / 13 33,moerser.musikschule@moers.de,,51.449564,6.625020,,<p>Das Adventskonzert der Moerser Musikschule in der Kath. Pfarrkirche St. Josef</p>,mail,
102,Bastelwerkstatt Advent,-,2015-11-24,2015-12-01,15:00-16:30,,,15:00-16:30,,,,,,,15:00-16:30,,,,,,,,,,,,,,,,,,,,,,,,http://www.moers.de/de/veranstaltungen/bastelwerkstatt-advent-fuer-kinder-ab-5-jahren-zusatztermin-7800088/,,"Bibliothek, Kinder- und Jugendbibliothek",Moers,Wilhelm-Schroeder-Straße 10,47441,"Bibliothek, Zentrale",Moers,Wilhelm-Schroeder-Straße 10,47441,http://www.bibliothek-moers.de,,0 28 41 / 201-742,bibliothek@moers.de,https://www.facebook.com/BibliothekMoers,51.4532300,6.6320400,Eine vorherige Anmeldung ist erforderlich<br>2 Euro für das Material,"<p>Kerzen, Nikoläuse, Engel und andere Kleinigkeiten für die Adventszeit können von Kindern ab 5 Jahren an diesem Nachmittag gebastelt werden.</p><p>Eine vorherige Anmeldung ist erforderlich; für das Material wird ein Kostenbeitrag von 2 Euro erhoben.</p><p>Informationen und Anmeldung unter Telefon 0 28 41 / 201-751 oder direkt in der Bibliothek Moers</p>",ready,
103,Nulli und Priesemut - Ein Baum für den Weihnachtsmann,-,2015-12-03,2015-12-03,15:00,,,,,,,,,,,,15:00,,,,,,,,,,,,,,,,,,,,,,http://www.moers.de/de/veranstaltungen/wodo-puppenspiel-zeigt-nulli-und-priesemut-ein-baum-fuer-den-weihnachtsmann-8275892/,,"Bibliothek, Zweigstelle Repelen",Moers,Lintforter Straße 101,47445,"Bibliothek, Zweigstelle Repelen",Moers,Lintforter Straße 101,47445,http://www.bibliothek-moers.de,,0 28 41 / 201-742,bibliothek@moers.de,https://www.facebook.com/BibliothekMoers,51.490048,6.602842,Kinder 3 Euro<br>Erwachsene 6 Euro,"<p>„Nulli und Priesemut – Ein Baum für den Weihnachtsmann“ präsentiert von WODO Puppenspiel für Menschen ab 4 Jahren</p><p>Priesemut fällt auf, dass der Weihnachtsmann noch nie bei ihnen vorbei kam. Vermutlich, weil der Weihnachtsbaum fehlte. Deshalb muss nun ein Weihnachtsbaum her …</p><p>Ein Spaß für die ganze Familie!</p><p>Karten sind nur in der Zweigstelle Repelen erhältlich<br>Infos und Kartenreservierung unter Tel.: 02841 / 72273 oder direkt in der Zweigstelle Repelen</p>",ready,
104,Der kleine Hase im Weihnachtswald,-,2015-12-05,2015-12-12,11:30-13:00,,,,,,,,,,,,,,11:30-13:00,,,,,,,11:30-13:00,,,,,,,,,,,,,http://www.moers.de/de/veranstaltungen/der-kleine-hase-im-weihnachtswald-von-rebecca-harry-bilderbuchkino-und-basteln-mit-ina-wilmsmann-fuer-kinder-ab-4-jahren-7907174/,,"Bibliothek, Kinder- und Jugendbibliothek",Moers,Wilhelm-Schroeder-Straße 10,47441,"Bibliothek, Zentrale",Moers,Wilhelm-Schroeder-Straße 10,47441,http://www.bibliothek-moers.de,,0 28 41 / 201-742,bibliothek@moers.de,https://www.facebook.com/BibliothekMoers,51.4532300,6.6320400,Eine vorherige Anmeldung ist erforderlich<br>2 Euro für das Material,"<p>Der kleine Hase im Weihnachtswald von Rebecca Harry: Bilderbuchkino und Basteln mit Ina Wilmsmann für Kinder ab 4 Jahren</p><p>Schneehäschen Flöckchen wünscht sich einen Freund! Also macht es sich auf zum Weihnachtsmann. Unterwegs trifft es viele Tiere, denen es gerne hilft. Und beim Weihnachtsmann angekommen, hat sich der Wunsch schon von ganz alleine erfüllt …</p><p>Eine vorherige Anmeldung ist erforderlich, für das Material wird ein Kostenbeitrag von 2 Euro erhoben.</p><p>Informationen und Anmeldung unter Telefonnummer 0 28 41 / 201-751 oder direkt in der Bibliothek Moers.</p>",ready,
25,Verkaufsoffenem Sonntag im Lichterglanz,-,2015-12-06,2015-12-06,13:00-18:00,,,,,,,,,,,,,,,13:00-18:00,,,,,,,,,,,,,,,,,,,http://www.moers.de/de/veranstaltungen/verkaufsoffenem-sonntag-im-lichterglanz-9120026/,,Innenstadt,Moers,Moers-Mitte,47441,Moers Marketing GmbH,Moers,Homberger Straße 4,47441,http://www.moers-stadtportal.de,,0 28 41 / 88 22 6-0 ,info@moers-marketing.de,,51.451016,6.627906,,"<p>Zum letzten Mal in 2015 lädt der Moerser Einzelhandel am 06. Dezember zum Sonntags-Shopping ein. Traditionell können die Kunden von 13 bis 18 Uhr die weihnachtlichen Gassen der Stadt besuchen und Geschenke für ihre Lieben einkaufen. Dabei bietet Moers viel Abwechslung auf den unterschiedlichen Einkaufsstraßen wie der Homberger-, Stein- oder Neustraße und dem gemütlichen Altstadt-3-Eck. Liebevoll geschmückte Schaufenster, weihnachtliche Beleuchtung und viele Aktionen der ansässigen Geschäfte lohnen einen Besuch allemal.</p>",mail,
105,Bastelwerkstatt Weihnachten,-,2015-12-08,2015-12-15,15:00-16:30,,,,,,,,,,,,,,,,,15:00-16:30,,,,,,,15:00-16:30,,,,,,,,,,http://www.moers.de/de/veranstaltungen/bastelwerkstatt-weihnachten-fuer-kinder-ab-5-jahren-2334849/,,"Bibliothek, Kinder- und Jugendbibliothek",Moers,Wilhelm-Schroeder-Straße 10,47441,"Bibliothek, Zentrale",Moers,Wilhelm-Schroeder-Straße 10,47441,http://www.bibliothek-moers.de,,0 28 41 / 201-742,bibliothek@moers.de,https://www.facebook.com/BibliothekMoers,51.4532300,6.6320400,Eine vorherige Anmeldung ist erforderlich<br>2 Euro für das Material,"<p>Tannenbäume, Weihnachtsmänner, Engel und andere weihnachtliche Kleinigkeiten können von Kindern ab 5 Jahren an diesem Nachmittag gebastelt werden.</p><p>Eine vorherige Anmeldung ist erforderlich; für das Material wird ein Kostenbeitrag von 2 Euro erhoben.</p><p>Informationen und Anmeldung unter Telefon 0 28 41 / 201-751 oder direkt in der Bibliothek Moers</p>",ready,
28,Weihnachtskonzert,-,2015-12-12,2015-12-13,19:30,,,,,,,,,,,,,,,,,,,,,19:30,19:30,,,,,,,,,,,,http://www.moers.de/de/veranstaltungen/weihnachtskonzert-niederrheinisches-kammerorchester-moers-abo-7395502/,,Martinstift,Moers,Filder Straße 126,47447,Moerser Musikschule,MOERS,Filder Straße 126,47447,http://www.moerser-musikschule.de,,0 28 41 / 13 33,moerser.musikschule@moers.de,,51.4416080,6.6220530,,"<p>Weihnachtskonzert des Niederrheinisches Kammerorchester Moers (NKM)</p><p>Maria Jarovaya, Flöte<br>Nino Saakadze, Cembalo<br>Michael Preiser, Musikalische Leitung</p><p>Georg Philipp Telemann (1681-1767)<br>Ouvertüre „La Changeante“ g-Moll für Streicher und B.c. TWV 55; g 2</p><p>Johann Sebastian Bach (1685-1750)<br>Konzert für Cembalo und Streicher A-Dur BWV 1055</p><p>Carl Philipp Emanuel Bach (1714-1788)<br>Konzert für Flöte und Streicher d-Moll Wq 22</p><p>Das  Niederrheinische  Kammerorchester  Moers  wählt traditionell  im  Advent  ein  barockes  Programm.  Maria Jarovaya tritt bei der Jungen Münchener Philharmonie, beim  Mitteldeutschen  Kammerorchester,  bei  den  Ludwigsburger  Schlossfestspielen  und  beim  Klangforum Mitte Europa auf. </p><p>Nino   Saakadze   (Tiblis)   studierte   und   arbeitete   als Pädagogin  und  Korrepetitorin  in  ihrer  Heimatstadt, ehe  sie  in  der  BRD  ein  Cembalostudium  aufnahm.  Sie ist  Dozentin  in  Münster  und  musiziert  in  verschiedenen Ensembles.</p>",mail,
120,Moers ganz weihnachtlich,-,2015-12-13,2015-12-16,15:00,,,,,,,,,,,,,,,,,,,,,,15:00,,,15:00,,,,,,,,,http://www.moers.de/de/veranstaltungen/moers-ganz-weihnachtlich-4696684/,,Denkmal Altmarkt,Moers,Denkmal auf dem Altmarkt,,Stadtinformation Moers,Moers,Homberger Straße 4,47441,http://www.moers.de/de/ansprechpartner/stadtinfo-stadtinformation/,,,stadtinformation@moers-marketing.de,,51.451687,6.626289,6 Euro pro Person<br>Kinder von 6 - 14 Jahren zahlen die Hälfte,"<p>Lauschen Sie beim Rundgang durch die weihnachtlich geschmückte Altstadt den Erzählungen über Brauchtum, Traditionen und weihnachtliche Begebenheiten. Genießen Sie dabei köstliches Grafschafter Gebäck.</p><p>Treffpunkt ist jeweils am Denkmal auf dem Altmarkt.</p><p> Die Teilnahmegebühr kostet 6,00 € pro Person, Kinder von 6 - 14 erhalten 50 % Ermäßigung.</p>",ready,
90,Kinder-Weihnachts-Aktion,-,2015-12-24,2015-12-24,09:00-12:00,,,,,,,,,,,,,,,,,,,,,,,,,,,,,,,,,09:00-12:00,http://www.moers.de/de/veranstaltungen/kinder-weihnachts-aktion-3857685/,,Ev. Kirchengemeinde Moers-Scherpenberg,Moers,Homberger Straße 350,47443,Ev. Kirchengemeinde Moers-Scherpenberg,Moers,Homberger Straße 350,47443,http://www.scherpels.net,,0 28 41 / 5 13 07,,,51.4495980,6.6726410,5 Euro,"<p>Liebe Kinder, freut euch drauf, am 24.12. stehen alle Türen für euch auf!</p><p>Von 9 bis 12 Uhr sind wir nur für euch da, das wird ein Riesenspaß, ist doch ganz klar! Und mit nur 5 Euro seid ihr dabei, bei Basteln, Backen und Toberei. Bitte bringt Schere und Kleber mit, dann wird dieser Tag ganz sicher ein Hit!</p><p>Wir warten aufs Christkind! Sie bauen den Weihnachtsbaum auf, packen die letzten Geschenke ein, bereiten das Weihnachtsessen vor ... Vieles muss noch erledigt werden. Und Ihre Kinder? Sind dann bei uns zur Kinder-Weihnachts-Aktion genau richtig aufgehoben! In der Evangelischen Kirchengemeinde Moers-Scherpenberg steht dann ein erfahrenes Team bereit und hat Zeit zum Basteln, Spielen, Toben, Quatschen und viele Bastelaktionen sind nur einige der Angebote, die wir dieses Jahr für Ihre Kinder geplant und vorbereitet haben.</p><p>Das Team von über 20 ehrenamtlichen aus der Kinder- und Jugendarbeit freut sich auf Ihre Kinder! Für nur 5 Euro Eintritt (Material, Getränke und Kekse inklusive) öffnen wir am 24.12. von 9 bis 12 Uhr für Kinder von 6 bis 12 Jahren unsere Pforten. Eine Voranmeldung ist nicht nötig. (Bitte einen Zettel mit Namen des Kindes und Telefonnummer mitbringen/ mitgeben)</p><p>Herzlich Willkommen zu einem angenehmen und für die ganze Familie stressfreien Heiligabend-Vormittag!!!</p>",ready,
91,Hexenhaus-Backwerk,-,2015-11-26,2015-11-26,15:00-16:00,,,,,15:00-16:00,,,,,,,,,,,,,,,,,,,,,,,,,,,,,http://www.moers.de/de/veranstaltungen/hexenhaus-backwerk/,,Ev. Kirche Moers-Scherpenberg,Moers,Homberger Str. 350,47443,Ev. Kirchengemeinde Moers-Scherpenberg,Moers,Homberger Straße 350,47443,http://www.ev-kirche-scherpenberg.de/termin/hexenhaus-backwerk/26-november-2015-1500,,0 28 41 / 5 13 07,,,51.4495980,6.6726410,10 Euro,<p>Zuckerguss ist ein toller Hexenhaus-Kleber! Im November findet bei uns in Zusammenarbeit mit der Bäckerei Büsch das Gestalten von Hexenhäusern statt: Jedes Kind „klebt“ mithilfe von Zuckerguss sein eigenes Hexenhaus zusammen und darf dieses dann mit Süßigkeiten gestalten und natürlich mit nach Hause nehmen.</p><p>Teilnehmerzahl: max. 15 Kinder<br>Teilnehmeralter: ab 5 Jahren<br>Kosten: 10 € (bitte bei der Anmeldung bezahlen!)</p>,ready,
65,Eröffnung des Weihnachtsmarktes,#,2015-11-26,2015-11-26,17:30-19:00,,,,,17:30-19:00,,,,,,,,,,,,,,,,,,,,,,,,,,,,,http://www.moers.de/de/veranstaltungen/eroeffnung-des-weihnachtsmarktes-2015/,,Kastellplatz,Moers,Kastell,47441,MoersMarketing GmbH,Moers,Homberger Straße 4,47441,http://www.moers-stadtportal.de,,,,,51.4496320,6.6252240,,<p>17.30 - 18.00 Uhr de Swingers (Rock‘n‘Roll bis Pop)<br>18.00 - 18.15 Uhr Eröffnung durch Bürgermeister Fleischhauer<br>18.30 - 19.00 Uhr de Swingers</p>,ready,
3,Moerser Weihnachtsmarkt: Kat Moore,#,2015-11-27,2015-11-27,19:00-20:30,,,,,,19:00-20:30,,,,,,,,,,,,,,,,,,,,,,,,,,,,http://www.moers.de/de/veranstaltungen/moerser-weihnachtsmarkt-kat-moore/,,Kastellplatz,Moers,Kastell,47441,MoersMarketing GmbH,Moers,Homberger Straße 4,47441,http://www.moers-stadtportal.de,,,,,51.4496320,6.6252240,,"<p>Heute auf der Bühne: Kat Moore (Soul Sängerin)</p><p>„Black Music at its best“, präsentiert von der charmanten, charismatischen Künstlerin Kat Moore aus Camden, New Jersey, die auch mit Blues und Gospel zu begeistern weiß.</p>",ready,
33,Weihnachtsmarkt in Repelen,-,2015-11-28,2015-11-28,15:00-20:00,,,,,,,15:00-20:00,,,,,,,,,,,,,,,,,,,,,,,,,,,http://www.moers.de/de/veranstaltungen/weihnachtsmarkt-28-11/,Turmblasen und Konzert mit dem&nbsp; Posaunenchor vor der Kirche 17.00 Uhr,Repelen - Ev. Dorfkirche,Moers,An der Linde 1,47445,Repelen - Ev. Dorfkirche,Moers,An der Linde 1,47445,http://,,,,,51.4890300,6.6090200,,<p>Die Bläserinnen und Bläser des Posaunenchores laden alle Weihnachtsmarktbesucher zum Mitsingen ein</p>,website,
92,Weihnachtsmärktchen,-,2015-11-28,2015-11-28,13:00-19:00,,,,,,,13:00-19:00,,,,,,,,,,,,,,,,,,,,,,,,,,,http://www.moers.de/de/veranstaltungen/weihnachtsmaerktchen/,,Ev. Kirche Moers-Scherpenberg,Moers,Homberger Str. 350,47443,Ev. Kirchengemeinde Moers-Scherpenberg,Moers,Homberger Straße 350,47443,http://www.ev-kirche-scherpenberg.de/termin/weihnachtsmaerktchen/28-november-2015-1300,,,,,51.4495980,6.6726410,,"<p>Am Samstag vor dem 1. Advent findet bei uns wieder ein kleiner Weihnachtsmarkt ""rund um den Kirchturm"" statt. Unter anderem folgende Stände und Angebote erwarten Sie:</p><p>Viele verschiedene Bastelarbeiten, kleine Schmuckoase, Bienenprodukte und Liköre, selbstgenähte Sachen, schmieden mit Kindern, Kinderkaufladen, Bunter Tisch Moers, Eine-Welt-Laden, Laufkarten für Kinder mit Bastel- und Spielangebot, Bratwurst/Krakauer im Brötchen, Glühwein, Punsch, Reibekuchen, Erbsensuppe, Faire Crêpes und Kakao, Christstollen und Kaffee</p><p>Ab 17.30 Uhr: Posaunenchor Moers unter Leitung von Stefan Büscherfeld.</p><p>Wir möchten Sie recht herzlich zu diesem gemütlichen Vor-Advents-Samstag einladen. An diesem Tag haben Sie auch die Möglichkeit die neu sanierten Jugend-Toiletten zu begutachten. Schauen Sie mal vorbei!</p>",ready,
4,Moerser Weihnachtsmarkt: Original Ruhrpottsteirer,#,2015-11-28,2015-11-28,19:15-21:00,,,,,,,19:15-21:00,,,,,,,,,,,,,,,,,,,,,,,,,,,http://www.moers.de/de/veranstaltungen/moerser-weihnachtsmarkt-original-ruhrpottsteirer/,,Kastellplatz,Moers,Kastell,47441,MoersMarketing GmbH,Moers,Homberger Straße 4,47441,http://www.moers-stadtportal.de,,,,,51.4496320,6.6252240,,"<p>Heute auf der Bühne: Original Ruhrpottsteirer (Band)</p><p>Eines der erfolgreichsten Trios der Oberkrainermusik aus dem Ruhrgebiet, für Feste, Tanz und Konzerte. Ausgezeichnet mit der goldenen Harmonika. Eine Gruppe, die Schlagzeilen macht und für Aufsehen sorgt! Denn die drei fröhlichen Musikanten aus Moers spielen sich von Erfolg zu Erfolg.</p>",ready,
16,Moerser Weihnachtsmarkt: Drehorgelspieler Walter Stiller,#,2015-11-29,2015-11-29,14:00-18:00,,,,,,,,14:00-18:00,,,,,,,,,,,,,,,,,,,,,,,,,,http://www.moers.de/de/veranstaltungen/moerser-weihnachtsmarkt-drehorgelspieler-walter-stiller-auf-dem-weihnachtsmarktgelaende-2015/,,Kastellplatz,Moers,Kastell,47441,MoersMarketing GmbH,Moers,Homberger Straße 4,47441,http://www.moers-stadtportal.de,,,,,51.4496320,6.6252240,,<p>Heute auf dem Weihnachtsmarktgelände: Walter Stiller (Drehorgel)</p>,ready,
62,Adventskonzert zum Mitmachen,-,2015-11-29,2015-11-29,17:00,,,,,,,,17:00,,,,,,,,,,,,,,,,,,,,,,,,,,http://www.moers.de/de/veranstaltungen/adventskonzert-zum-mitmachen/,"Schwafheimer Kantorei, Hartmut R&uuml;hl (Leitung), Fl&ouml;tenkreis Schwafheim, Uta Hoffmann (Leitung), Instrumentalensemble, Axel Berchem (Orgel)",Schwafheim - Ev. Kirche,Moers,Ackerstraße 180,47447,Schwafheim - Ev. Kirche,Moers,Ackerstraße 180,47447,http://,,,,,51.420956,6.648314,,"<p>Schwafheimer Kantorei, Hartmut Rühl (Leitung), Flötenkreis Schwafheim, Uta Hoffmann (Leitung), Instrumentalensemble, Axel Berchem (Orgel)</p>",void,
35,Festliches Konzert zum 1. Advent,-,2015-11-29,2015-11-29,17:00,,,,,,,,17:00,,,,,,,,,,,,,,,,,,,,,,,,,,http://www.moers.de/de/veranstaltungen/festliches-konzert-zum-1.-advent/,,Ev. Dorfkirche Repelen,Moers,An der Linde,47445,Internationale Blechbläser-Tage Moers,Moers,Niephauser Straße 205,47445,http://www.moerser-blechblaesertage.de,,,,,51.4890300,6.6090200,Eintritt: VVK 12 Euro<br>Abendkasse 15 Euro,"<p>„Meine Seele preist den Herrn""</p><p>In Zusammenarbeit mit der ev. Kirchengemeinde Moers-Repelen laden die Internationalen Blechbläsertage Moers am 29. November 2015 um 17 Uhr zu ihrem traditionellen Konzert zum 1. Advent in die Dorfkirche Repelen. Geboten wird den Zuhörern in diesem Jahr das Magnificat sowie die Kantate „Christen, ätzet diesen Tag"" von Johann Sebastian Bach. Die Kirchenkantate bezieht sich auf die Weihnachtsgeschichte nach Lukas und ist selten auf den Konzertbühnen zu hören.</p><p>Eindrucksvoll präsentiert wird sie von den international besetzten Protagonisten des Abends: Neben einem Trompetenensemble der Moerser Blechbläser sind dies Mitglieder der Niederrheinischen Sinfoniker sowie der Chor Dissonanz unter der Leitung von Uwe Sin. Auch die Solisten versprechen eine hohe musikalische Qualität. Allen voran die in Korea geborene und mehrfach ausgezeichnete Sopranistin Myung-Hee Hyun, die bereits in der Kölner Philharmonie sowie in Nantes, Lissabon, Barcelona, Seoul und Tokio ihr Publikum begeisterte. Gemeinsam mit Alexandra Thomas (Alt), Tobias Glagau (Tenor) und Christian Walter (Bass) wird sie an diesem Abend für das besondere Etwas innerhalb der besinnlichen Stimmung sorgen.</p><p>Gerade aufgrund der Unterstützung der Kulturstiftung der Sparkasse am Niederrhein können die Blechbläsertage somit auch im 21. Jahr ihres Bestehens ihre lange Tradition fortführen und die festliche Adventszeit musikalisch gebührend einleiten.</p>",website,
64,Moerser Weihnachtsmarkt: Biathlon auf Schalke,#,2015-11-29,2015-11-29,11:00-19:00,,,,,,,,11:00-19:00,,,,,,,,,,,,,,,,,,,,,,,,,,http://www.moers.de/de/veranstaltungen/moerser-weihnachtsmarkt-drehorgelspieler-walter-stiller-auf-dem-weihnachtsmarktgelaende/,,Kastellplatz,Moers,Kastell,47441,MoersMarketing GmbH,Moers,Homberger Straße 4,47441,http://www.moers-stadtportal.de,,,,,51.4496320,6.6252240,,"<p>Biathlon auf Schalke-Tour 2015 zu Gast auf dem Weihnachtsmarkt. Auf den Spuren von Schempp, Neuner & Co.</p><p>Das Gewehr im Anschlag, der Puls rast und nur Du und die fünf schwarzen Scheiben sind alles was jetzt zählt! Wer dieses Biathlon-Feeling hautnah erleben möchte, der kann am Sonntag, 29.11.2015, in der Zeit von 11 bis 19 Uhr, an der Biathlon-Challenge auf dem Moerser Weihnachtsmarkt teilnehmen.</p><p>So geht‘s: Während der Aktion kann man sich jederzeit zum Sprint-Biathlon-Wettbewerb kostenlos anmelden. Der Schießstand und der Cardiobereich befinden sich an der Schlittschuhbahn/ Glühweinpyramide. Mitmachen kann jeder, egal ob jung oder alt.</p><p>Man startet zunächst zum 200 m Crosstrainer-Lauf, um dann im Stehendschießen die fünf Scheiben mit dem Laser-Biathlon-Gewehr anzuvisieren.</p><p>Super Gewinne: Der Tagesschnellste aus Moers mit 5 Treffern ist beim Finale der Biathlon auf Schalke-Tour 2015 in der VELTINS-Arena dabei und erhält noch 2 VIP-Tickets mit Zugang zum La-Ola-Club und dem Innenraum der Arena. Der Gesamtsieger „Auf Schalke“ gewinnt zusätzlich noch einen Kurzurlaub in Winterberg.</p>",ready,
5,Moerser Weihnachtsmarkt: Frauenchor Sangeslust,#,2015-12-01,2015-12-01,18:00-19:00,,,,,,,,,,18:00-19:00,,,,,,,,,,,,,,,,,,,,,,,,http://www.moers.de/de/veranstaltungen/moerser-weihnachtsmarkt-frauenchor-sangeslust/,,Kastellplatz,Moers,Kastell,47441,MoersMarketing GmbH,Moers,Homberger Straße 4,47441,http://www.moers-stadtportal.de,,,,,51.4496320,6.6252240,,<p>Heute auf der Bühne: Frauenchor Sangeslust</p>,ready,
6,Moerser Weihnachtsmarkt: Achim Frank und Bands presented by Traber Event,#,2015-12-02,2015-12-02,18:00-20:00,,,,,,,,,,,18:00-20:00,,,,,,,,,,,,,,,,,,,,,,,http://www.moers.de/de/veranstaltungen/moerser-weihnachtsmarkt-achim-frank-und-bands-presented-by-traber-event/,,Kastellplatz,Moers,Kastell,47441,MoersMarketing GmbH,Moers,Homberger Straße 4,47441,http://www.moers-stadtportal.de,,,,,51.4496320,6.6252240,,"<p>Heute auf der Bühne: Achim Frank & Friends</p><p>Moerser Urgesteine, Musik für Jung und Alt, Oldies & Coversongs</p>",ready,
7,Moerser Weihnachtsmarkt: ABBA Chiquitita Show Double,#,2015-12-03,2015-12-03,18:00-19:30,,,,,,,,,,,,18:00-19:30,,,,,,,,,,,,,,,,,,,,,,http://www.moers.de/de/veranstaltungen/moerser-weihnachtsmarkt-abba-chiquitita-show-double/,,Kastellplatz,Moers,Kastell,47441,MoersMarketing GmbH,Moers,Homberger Straße 4,47441,http://www.moers-stadtportal.de,,,,,51.4496320,6.6252240,,<p>Heute auf der Bühne: ABBA Chiquiti ta Show Duo</p><p>Lyane Leigh und Dani D. lassen den beglückenden Lifestyle der siebziger Jahre wieder aufleben und präsentieren die größten Hits der schwedischen Kultband ABBA in einer perfekten Tribute-Show.</p>,ready,
34,Moerser Weihnachtsmarkt: Valerie Scott - Queen of Soul,#,2015-12-04,2015-12-04,19:00-20:30,,,,,,,,,,,,,19:00-20:30,,,,,,,,,,,,,,,,,,,,,http://www.moers.de/de/veranstaltungen/moerser-weihnachtsmarkt-valerie-scott-queen-of-soul-2015/,,Kastellplatz,Moers,Kastell,47441,MoersMarketing GmbH,Moers,Homberger Straße 4,47441,http://www.moers-stadtportal.de,,,,,51.4496320,6.6252240,,"<p>Heute auf der Bühne: Valerie Scott (Sängerin)</p><p>Sie trat in Theateraufführungen und Broadway Musicals wie ‚Ain‘t Misbehavin‘ and ‚Beehive‘ auf, und arbeitete mit großen Musikern wie Leonard Bernstein, den Edward Hawkin Singers (‚Oh Happy Day‘) zusammen. Sogar eine Tour mit Mick Jagger und Chaka Khan begleitete sie.</p>",ready,
60,"Ach du liebe Weihnachtszeit! - eine musikalisch-literarische Revue, mitunter wenig besinnlich",-,2015-12-05,2015-12-05,15:00,,,,,,,,,,,,,,15:00,,,,,,,,,,,,,,,,,,,,http://www.moers.de/de/veranstaltungen/ach-du-liebe-weihnachtszeit-eine-musikalisch-literarische-revue-mitunter-wenig-besinnlich/,"Heitere und ernste, komische und nachdenkliche, anr&uuml;hrende und kritische Seiten von Weihnachten &ndash; &nbsp;unterhaltsam zu Geh&ouml;r gebracht. Gew&uuml;rzt mit Liedern und Kabarett",Moers - Ev. Gemeindezentrum Begegnungsstätte,Moers,Schwanenring 5,47441,Moers - Ev. Gemeindezentrum Begegnungsstätte,Moers,Schwanenring 5,47441,http://,,,,,51.446312,6.614630,,"<p>Heitere und ernste, komische und nachdenkliche, anrührende und kritische Seiten von Weihnachten –  unterhaltsam zu Gehör gebracht. Gewürzt mit Liedern und Kabarett</p>",void,
8,Moerser Weihnachtsmarkt: Hayden Chisholm (Improviser in Residence) und Afro Lounge Brothers,#,2015-12-05,2015-12-05,17:30-18:15,,,,,,,,,,,,,,17:30-18:15,,,,,,,,,,,,,,,,,,,,http://www.moers.de/de/veranstaltungen/moerser-weihnachtsmarkt-hayden-chisholm-improviser-in-residence-und-afro-lounge-brothers/,,Kastellplatz,Moers,Kastell,47441,MoersMarketing GmbH,Moers,Homberger Straße 4,47441,http://www.moers-stadtportal.de,,,,,51.4496320,6.6252240,,<p>Heute auf der Bühne: Hayden Chisholm & Afro Lounge Brothers</p>,ready,
9,Moerser Weihnachtsmarkt: Groovin a box,#,2015-12-05,2015-12-05,19:15-20:45,,,,,,,,,,,,,,19:15-20:45,,,,,,,,,,,,,,,,,,,,http://www.moers.de/de/veranstaltungen/moerser-weihnachtsmarkt-groovin-a-box/,,Kastellplatz,Moers,Kastell,47441,MoersMarketing GmbH,Moers,Homberger Straße 4,47441,http://www.moers-stadtportal.de,,,,,51.4496320,6.6252240,,<p>Heute auf der Bühne: Groovin-a-box (Band)</p>,ready,
93,Adventsmatinee,-,2015-12-06,2015-12-06,11:30,,,,,,,,,,,,,,,11:30,,,,,,,,,,,,,,,,,,,http://www.moers.de/de/veranstaltungen/adventsmatinee/,"Werke von Wolfgang Amadeus Mozart, Georg Philip Telemann, Antonio Vivaldi, Johann Pachelbel, u. a.",Moers-Scherpenberg - Ev. Kirche,Moers,Homberger Straße 350,47443,Moers-Scherpenberg - Ev. Kirche,Moers,Homberger Straße 350,47443,http://,,,,,51.4495980,6.6726410,,"<p>Wir laden ein zu einem musikalischen Gottesdienst am 6. Dezember um 11.30 Uhr. Die beiden Kirchenchöre aus Scherpenberg und Hochheide singen Werke von Pachelbel, Vivaldi, Telemann, Mozart und Homilius. Begleitet werden sie von einem Instrumentalensemble.</p><p>Markus Theising spielt adventliche Weisen auf der Orgel und Pfarrer Martin Gres liest ansprechende Texte. Im Anschluss an diese Matinée bieten wir ein Mittagessen in unserem Gemeindesaal an.</p><p>Ev. Kirchenchor Moers-Scherpenberg, Ev. Kirchenchor Hochheide, Dorothee Kruchen-Berns (Leitung und Klavier), Instrumentalisten, Markus Theising, (Orgel), Pfr. Martin Gres (Texte)</p><p>Eintritt frei, Kollekte</p>",ready,
10,Moerser Weihnachtsmarkt: Drehorgelspieler Walter Stiller,#,2015-12-06,2015-12-06,14:00-18:00,,,,,,,,,,,,,,,14:00-18:00,,,,,,,,,,,,,,,,,,,http://www.moers.de/de/veranstaltungen/moerser-weihnachtsmarkt-drehorgelspieler-walter-stiller-auf-dem-weihnachtsmarktgelaende-06.12.2015/,,Kastellplatz,Moers,Kastell,47441,MoersMarketing GmbH,Moers,Homberger Straße 4,47441,http://www.moers-stadtportal.de,,,,,51.4496320,6.6252240,,<p>Heute auf dem Weihnachtsmarktgelände: Walter Stiller (Drehorgel)</p>,ready,
32,Moerser Weihnachtsmarkt: ENNI Familienweihnacht mit Nikolaus,#,2015-12-06,2015-12-06,15:00-17:00,,,,,,,,,,,,,,,15:00-17:00,,,,,,,,,,,,,,,,,,,http://www.moers.de/de/veranstaltungen/moerser-weihnachtsmarkt-enni-familienweihnacht/,,Kastellplatz,Moers,Kastell,47441,MoersMarketing GmbH,Moers,Homberger Straße 4,47441,http://www.moers-stadtportal.de,,,,,51.4496320,6.6252240,,"<p>Die ENNI Energie & Umwelt lädt zu einem bunten Mitmachprogramm während des Moerser Weihnachtsmarktes ein. Auf die kleinen Besucher warten viele Überraschungen. Dabei gehört von 15 bis 16:30 Uhr die Hauptbühne ganz den Kindern.</p><p>So sollen bei der Familienweihnacht auch dieses Mal die Kinderaugen leuchten. Der Moerser Allrounder Dirk Elfgen wird die Show moderieren. Mit ihm auf der Bühne sind die rothaarige Enni als Symbolfigur des ENNI-Kids-Clubs und natürlich der Nikolaus, für den die Kinder wieder Gedichte und Weihnachtslieder vortragen können. Dafür winkt ihnen eine Belohnung. Kinder des ENNI Kids Club sollten übrigens in jedem Fall ihren Club-Ausweis  mitbringen – so kann der Nikolaus sie sofort erkennen.</p>",ready,
31,Vorweihnachtliches Benefiz-Festkonzert,-,2015-12-06,2015-12-06,17:00,,,,,,,,,,,,,,,17:00,,,,,,,,,,,,,,,,,,,http://www.moers.de/de/veranstaltungen/vorweihnachtliches-benefiz-festkonzert/,,Repelen - Ev. Dorfkirche,Moers,An der Linde 1,47445,Repelen - Ev. Dorfkirche,Moers,An der Linde 1,47445,http://,,,,,51.4890300,6.6090200,,"<p>Es hat schon Tradition. Jedes Jahr zu Weihnachten kommt das Männerquartett “Glück-Auf“ an einem der Adventsonntage zu einem festlichen Chorkonzert in die Kirche und jedes Jahr spendet der Chor die am Ausgang gesammelte Spende für Familien und Kinder der Gemeinde, die unsere Hilfe brauchen.</p>",website,
49,Weihnachtliche Bläsermusik,-,2015-12-06,2015-12-06,17:00,,,,,,,,,,,,,,,17:00,,,,,,,,,,,,,,,,,,,http://www.moers.de/de/veranstaltungen/weihnachtliche-blaesermusik/,,Utfort - Ev. Kirche,Moers,Friedenstraße,47445,Utfort - Ev. Kirche,Moers,Friedenstraße,47445,http://,,,,,51.473989,6.627439,,"<p>Das Blechbläserensemble mit 11 Instrumentalisten und einem Schlagzeuger vereint bei diesem Konzert sowohl alte Werke als auch neue Arrangements von Melodien und Stimmungen zur Advents- und Weihnachtszeit. Dabei sind die Zuhörer eingeladen, immer wieder mitzusingen und sich von dem einzigartigen Sound des Ensembles durch das Konzert tragen zu lassen. Unter dem Dirigat von Dr. Raphael Thöne und der kurzweiligen Moderation des Hornisten des Ensembles bringt die Musik die Wände wahlweise wieder zum Schmelzen oder zum Wackeln.</p><p>Niederrhein Brass, Raphael Thöne (Leitung)</p><p>Eintritt frei, Kollekte am Ausgang</p>",website,
11,Moerser Weihnachtsmarkt: Gospelchor Barbershop Blend Sonsbeck,#,2015-12-06,2015-12-06,17:30-19:00,,,,,,,,,,,,,,,17:30-19:00,,,,,,,,,,,,,,,,,,,http://www.moers.de/de/veranstaltungen/moerser-weihnachtsmarkt-gospelchor-barbershop-blend-sonsbeck/,,Kastellplatz,Moers,Kastell,47441,MoersMarketing GmbH,Moers,Homberger Straße 4,47441,http://www.moers-stadtportal.de,,,,,51.4496320,6.6252240,,"<p>Heute auf der Bühne: Gospelchor Barbershop Blend, Sonsbeck</p>",ready,
13,Moerser Weihnachtsmarkt: Knappenchor Rheinland,#,2015-12-08,2015-12-08,18:00-19:30,,,,,,,,,,,,,,,,,18:00-19:30,,,,,,,,,,,,,,,,,http://www.moers.de/de/veranstaltungen/moerser-weihnachtsmarkt-knappenchor-rheinland-2015/,,Kastellplatz,Moers,Kastell,47441,MoersMarketing GmbH,Moers,Homberger Straße 4,47441,http://www.moers-stadtportal.de,,,,,51.4496320,6.6252240,,<p>Heute auf der Bühne: Knappenchor Rheinland e.V.</p>,ready,
1,Moerser Weihnachtsmarkt: Kerzenabend,#,2015-12-09,2015-12-09,17:30-19:30,,,,,,,,,,,,,,,,,,17:30-19:30,,,,,,,,,,,,,,,,http://www.moers.de/de/veranstaltungen/moerser-weihnachtsmarkt-kerzenabend-2015/,,Kastellplatz,Moers,Kastell,47441,MoersMarketing GmbH,Moers,Homberger Straße 4,47441,http://www.moers-stadtportal.de,,,,,51.4496320,6.6252240,,"<p>Romantischer Abend im Kerzenschein</p><p>Der Kerzenabend auf dem Moerser Weihnachtsmarkt hat bereits eine lange Tradition. Auch in diesem Jahr erlischt am Mittwoch, 9. Dezember 2015, ab etwa 17.30 Uhr für rund zwei Stunden das elektrische Licht auf dem Weihnachtsmarkt. Dann sorgen tausende Lichter und Kerzen für ein romantisches Erlebnis.</p><p>Die Musik auf der Bühne ist entsprechend angepasst. Wer ganz sicher sein will, dass er nicht stolpert, der sollte allerdings eine Taschenlampe dabei haben, dies kann hilfreich sein.</p>",ready,
14,Moerser Weihnachtsmarkt: Achim Frank und Bands,#,2015-12-09,2015-12-09,18:00-20:00,,,,,,,,,,,,,,,,,,18:00-20:00,,,,,,,,,,,,,,,,http://www.moers.de/de/veranstaltungen/moerser-weihnachtsmarkt-achim-frank-und-bands-presented-by-traber-event-09.12.2015/,,Kastellplatz,Moers,Kastell,47441,MoersMarketing GmbH,Moers,Homberger Straße 4,47441,http://www.moers-stadtportal.de,,,,,51.4496320,6.6252240,,<p>Heute auf der Bühne: Achim Frank & Friends</p>,ready,
15,Moerser Weihnachtsmarkt: Karl Timmermann,#,2015-12-10,2015-12-10,18:00-20:00,,,,,,,,,,,,,,,,,,,18:00-20:00,,,,,,,,,,,,,,,http://www.moers.de/de/veranstaltungen/moerser-weihnachtsmarkt-karl-timmermann-2015/,,Kastellplatz,Moers,Kastell,47441,MoersMarketing GmbH,Moers,Homberger Straße 4,47441,http://www.moers-stadtportal.de,,,,,51.4496320,6.6252240,,<p>Heute auf der Bühne: Karl Timmermann (Sänger)</p>,ready,
17,Moerser Weihnachtsmarkt: Helene Fischer Double Lena,#,2015-12-11,2015-12-11,18:30-20:30,,,,,,,,,,,,,,,,,,,,18:30-20:30,,,,,,,,,,,,,,http://www.moers.de/de/veranstaltungen/moerser-weihnachtsmarkt-helene-fischer-double-lena/,,Kastellplatz,Moers,Kastell,47441,MoersMarketing GmbH,Moers,Homberger Straße 4,47441,http://www.moers-stadtportal.de,,,,,51.4496320,6.6252240,,"<p>Heute auf der Bühne: Helene Fischer Double LENA BERG (Sängerin)</p><p>Die ultimative Helene Fischer Tribute Show! Nehmen Sie ihn wahr, diesen zarten Hauch Helene Fischer, gekonnt interpretiert, verblüffend authentisch, immer am Puls des Publikums und absolut Live! Lassen Sie sich gekonnt entführen, von hier bis unendlich, zu hundert Prozent mitten ins Paradies. Bis Sie völlig atemlos immer wieder dieses Fieber spüren!</p>",ready,
42,Turmblasen des Posaunenchores zum 3. Advent,-,2015-12-12,2015-12-12,17:00,,,,,,,,,,,,,,,,,,,,,17:00,,,,,,,,,,,,,http://www.moers.de/de/veranstaltungen/turmblasen-des-posaunenchores-zum-3.-advent-12-12/,,Repelen - Ev. Dorfkirche,Moers,An der Linde 1,47445,Repelen - Ev. Dorfkirche,Moers,An der Linde 1,47445,http://,,,,,51.4890300,6.6090200,,"<p>Weihnachtslieder zum Zuhören oder Mitsingen, dazu gibt es den bekannten Felke-Glühwein </p>",website,
12,Livin sixties,#,2015-12-12,2015-12-12,19:15-21:00,,,,,,,,,,,,,,,,,,,,,19:15-21:00,,,,,,,,,,,,,http://www.moers.de/de/veranstaltungen/moerser-weihnachtsmarkt-helene-fischer-double/,,Kastellplatz,Moers,Kastell,47441,MoersMarketing GmbH,Moers,Homberger Straße 4,47441,http://www.moers-stadtportal.de,,,,,51.4496320,6.6252240,,"<p>Heute auf der Bühne: Livin‘ Sixties (Band)</p><p>Livin’ Sixti es wurde als klassische Beatband in der Besetzung zwei Gitarren, Keyboard, Bass und Schlagzeug gegründet. Das Repertoire reicht von den 60ern bis zu aktuellen Top-Hits.</p>",ready,
47,So this is Christmas,-,2015-12-12,2015-12-12,20:00,,,,,,,,,,,,,,,,,,,,,20:00,,,,,,,,,,,,,http://www.moers.de/de/veranstaltungen/so-this-is-christmas/,,Repelen - Ev. Dorfkirche,Moers,An der Linde 1,47445,Repelen - Ev. Dorfkirche,Moers,An der Linde 1,47445,http://,,,,,51.4890300,6.6090200,,"<p>Lassen Sie sich vom Mercator-Ensemble auf eine wundervolle, weihnachtliche Klangkreise durch Europa entführen. Das musikalische Programm reicht vom Barock bis hin zum Jazz.</p><p>Heitere und stimmungsvolle Weihnachtsgeschichten, rezitiert von Schauspielerin Elisabeth Koehler runden diesen vorweihnachtlichen Adventsabend ab.</p>",website,
18,Moerser Weihnachtsmarkt: Johnny Cash Experience,#,2015-12-13,2015-12-13,19:15-21:00,,,,,,,,,,,,,,,,,,,,,,19:15-21:00,,,,,,,,,,,,http://www.moers.de/de/veranstaltungen/moerser-weihnachtsmarkt-johnny-cash-experience/,,Kastellplatz,Moers,Kastell,47441,MoersMarketing GmbH,Moers,Homberger Straße 4,47441,http://www.moers-stadtportal.de,,,,,51.4496320,6.6252240,,<p>Heute auf der Bühne: Johnny Cash Experience (Band)</p>,ready,
19,Moerser Weihnachtsmarkt: Knappenquartett,#,2015-12-15,2015-12-15,18:00-19:30,,,,,,,,,,,,,,,,,,,,,,,,18:00-19:30,,,,,,,,,,http://www.moers.de/de/veranstaltungen/moerser-weihnachtsmarkt-knappenquartett-2015/,,Kastellplatz,Moers,Kastell,47441,MoersMarketing GmbH,Moers,Homberger Straße 4,47441,http://www.moers-stadtportal.de,,,,,51.4496320,6.6252240,,<p>Heute auf der Bühne: Knappenquartett</p>,ready,
20,Moerser Weihnachtsmarkt: Achim Frank und Bands,#,2015-12-16,2015-12-16,18:00-20:00,,,,,,,,,,,,,,,,,,,,,,,,,18:00-20:00,,,,,,,,,http://www.moers.de/de/veranstaltungen/moerser-weihnachtsmarkt-achim-frank-und-bands-presented-by-traber-event-16.12.2015/,,Kastellplatz,Moers,Kastell,47441,MoersMarketing GmbH,Moers,Homberger Straße 4,47441,http://www.moers-stadtportal.de,,,,,51.4496320,6.6252240,,<p>Heute auf der Bühne: Achim Frank & Friends</p>,ready,
21,Moerser Weihnachtsmarkt: Shondell,#,2015-12-17,2015-12-17,18:00-19:30,,,,,,,,,,,,,,,,,,,,,,,,,,18:00-19:30,,,,,,,,http://www.moers.de/de/veranstaltungen/moerser-weihnachtsmarkt-shondell/,,Kastellplatz,Moers,Kastell,47441,MoersMarketing GmbH,Moers,Homberger Straße 4,47441,http://www.moers-stadtportal.de,,,,,51.4496320,6.6252240,,<p>Heute auf der Bühne: Shondell (Sängerin)</p>,ready,
40,Moerser Weihnachtsmarkt: Band Reflame,#,2015-12-18,2015-12-18,16:30-18:00,,,,,,,,,,,,,,,,,,,,,,,,,,,16:30-18:00,,,,,,,http://www.moers.de/de/veranstaltungen/moerser-weihnachtsmarkt-band-reflame/,,Kastellplatz,Moers,Kastell,47441,MoersMarketing GmbH,Moers,Homberger Straße 4,47441,http://www.moers-stadtportal.de,,,,,51.4496320,6.6252240,,<p>Heute auf der Bühne: Reflame (Band)</p>,ready,
22,Moerser Weihnachtsmarkt: Michael Bublé Tribute Show mit Gesangsdouble,#,2015-12-18,2015-12-18,19:00-20:30,,,,,,,,,,,,,,,,,,,,,,,,,,,19:00-20:30,,,,,,,http://www.moers.de/de/veranstaltungen/moerser-weihnachtsmarkt-michael-bubl-tribute-show-mit-gesangsdouble/,,Kastellplatz,Moers,Kastell,47441,MoersMarketing GmbH,Moers,Homberger Straße 4,47441,http://www.moers-stadtportal.de,,,,,51.4496320,6.6252240,,<p>Heute auf der Bühne: Michael Bublé Double (Sänger)</p>,ready,
44,Moerser Weihnachtsmarkt: Dirk Elfgen Sänger und Entertainer,#,2015-12-19,2015-12-19,19:15-21:00,,,,,,,,,,,,,,,,,,,,,,,,,,,,19:15-21:00,,,,,,http://www.moers.de/de/veranstaltungen/moerser-weihnachtsmarkt-dirk-elfgen-saenger-und-entertainer-2015/,,Kastellplatz,Moers,Kastell,47441,MoersMarketing GmbH,Moers,Homberger Straße 4,47441,http://www.moers-stadtportal.de,,,,,51.4496320,6.6252240,,"<p>Heute auf der Bühne: Dirk Elfgen Weihnachtsshow</p><p>Dirk Elfgen ist ein wahrer Allrounder, als Moderator genauso wie als Sänger & Entertainer: vielseitig & flexibel, dabei immer glaubwürdig und mit Persönlichkeit.</p>",ready,
23,Moerser Weihnachtsmarkt: Drehorgelspieler Walter Stiller,#,2015-12-20,2015-12-20,14:00-18:00,,,,,,,,,,,,,,,,,,,,,,,,,,,,,14:00-18:00,,,,,http://www.moers.de/de/veranstaltungen/moerser-weihnachtsmarkt-drehorgelspieler-walter-stiller-auf-dem-weihnachtsmarktgelaende-20.12.2015/,,Kastellplatz,Moers,Kastell,47441,MoersMarketing GmbH,Moers,Homberger Straße 4,47441,http://www.moers-stadtportal.de,,,,,51.4496320,6.6252240,,<p>Heute auf dem Weihnachtsmarktgelände: Walter Stiller (Drehorgel)</p>,ready,
48,Die schönsten Weihnachtslieder und Geschichten mit dem Posaunenchor,-,2015-12-20,2015-12-20,17:00,,,,,,,,,,,,,,,,,,,,,,,,,,,,,17:00,,,,,http://www.moers.de/de/veranstaltungen/die-schoensten-weihnachtslieder-und-geschichten-mit-dem-posaunenchor/,,Repelen - Ev. Dorfkirche,Moers,An der Linde 1,47445,Repelen - Ev. Dorfkirche,Moers,An der Linde 1,47445,http://,,,,,51.4890300,6.6090200,,"<p>Schöner kann Weihnachten nicht klingen, wenn aus hunderten Kehlen in der Dorfkirche zur Begleitung des Posaunenchores Weihnachtslieder erschallen. Herbert Schmitz hat wieder lustige und besinnliche Texte für diesen Nachmittag zusammengestellt. Die Bläser werden durch Rolf Hildebrand an Pauken und Röhrenglocken unterstützt.</p><p>Leitung: Michael Wittfeld</p>",website,
41,Moerser Weihnachtsmarkt: Big Band Orchester Niederrhein,#,2015-12-20,2015-12-20,19:00-20:30,,,,,,,,,,,,,,,,,,,,,,,,,,,,,19:00-20:30,,,,,http://www.moers.de/de/veranstaltungen/moerser-weihnachtsmarkt-big-band-orchester-niederrhein/,,Kastellplatz,Moers,Kastell,47441,MoersMarketing GmbH,Moers,Homberger Straße 4,47441,http://www.moers-stadtportal.de,,,,,51.4496320,6.6252240,,<p>Heute auf der Bühne: Bigband Orchester Niederrhein</p>,ready,
24,Moerser Weihnachtsmarkt: Frl. Inge und Mr. Mike - Swing Quartett,#,2015-12-21,2015-12-21,18:00-19:30,,,,,,,,,,,,,,,,,,,,,,,,,,,,,,18:00-19:30,,,,http://www.moers.de/de/veranstaltungen/moerser-weihnachtsmarkt-big-band-orchester-niederrhein-2015/,,Kastellplatz,Moers,Kastell,47441,MoersMarketing GmbH,Moers,Homberger Straße 4,47441,http://www.moers-stadtportal.de,,,,,51.4496320,6.6252240,,<p>Heute auf der Bühne: Frl. Inge & Mr. Mike (Swing)</p>,ready,
52,Moerser Weihnachtsmarkt: Musikverein Menzelen,#,2015-12-22,2015-12-22,18:00-19:30,,,,,,,,,,,,,,,,,,,,,,,,,,,,,,,18:00-19:30,,,http://www.moers.de/de/veranstaltungen/moerser-weihnachtsmarkt-musikverein-menzelen-2015/,,Kastellplatz,Moers,Kastell,47441,MoersMarketing GmbH,Moers,Homberger Straße 4,47441,http://www.moers-stadtportal.de,,,,,51.4496320,6.6252240,,<p>Heute auf der Bühne: Musikverein Menzelen (Orchester)</p>,ready,
50,Traditionelles Weihnachtskonzert,-,2015-12-22,2015-12-22,19:00,,,,,,,,,,,,,,,,,,,,,,,,,,,,,,,19:00,,,http://www.moers.de/de/veranstaltungen/traditionelles-weihnachtskonzert/,,Repelen - Ev. Dorfkirche,Moers,An der Linde 1,47445,Repelen - Ev. Dorfkirche,Moers,An der Linde 1,47445,http://,,,,,51.4890300,6.6090200,,"<p>Traditionelles Weihnachtskonzert, Cantare-Da Capo und Collegium Vocale</p>",website,
