id,district,name,street,zip_city,20141117,20141118,20141119,20141120,20141121,20141122,20141123,20141124,20141125,20141126,20141127,20141128,20141129,20141130,20141201,20141202,20141203,20141204,20141205,20141206,20141207,20141208,20141209,20141210,20141211,20141212,20141213,20141214,20141215,20141216,20141217,20141218,20141219,20141220,20141221,20141222,20141223,20141224,20141225,20141226,20141227,20141228,20141229,20141230,20141231,20150101,20150102,20150103,20150104,20150105,20150106,organizer,org_address,org_contact,phone,phone2,fax,email,web,fee,kind,remarks
14,Charlottenburg-Wilmersdorf,Weihnachtsmarkt rund um die Grunewaldkirche,Bismarckallee 28 B,14193 Berlin,,,,,,,,,,,,,,11:00-19:00,,,,,,,,,,,,,,,,,,,,,,,,,,,,,,,,,,,,,,Evangelische Kirchengemeinde Grunewald,,Frau Wecke,,,89 73 33 55,h.wecke@grunewaldgemeinde.de,www.grunewaldgemeinde.de,0,gemeinnützig,
12,Charlottenburg-Wilmersdorf,Dänischer Weihnachtsmarkt,Brienner Str. 12,10713 Berlin,,,,,,,,,,,,,12:00-18:00,12:00-17:00,,,,,,,,,,,,,,,,,,,,,,,,,,,,,,,,,,,,,,Dänische Gemeinde Berlin,,,873 44 30,,,,www.christianskirken.de,0,gemeinnützig,
18,Charlottenburg-Wilmersdorf,32. Weihnachtsmarkt in der Lindenkirche,Homburger Str. 48,14197 Berlin,,,,,,,,,,,,,,,,,,,,12:00-18:00,,,,,,,,,,,,,,,,,,,,,,,,,,,,,,,,Evangelische Lindenkirchengemeinde,,,827 92 20,,82 79 22 41,buero@lindenkirche.de,www.lindenkirche.de,0,gemeinnützig,
16,Charlottenburg-Wilmersdorf,Nikolausmarkt der Beschäftigungs- und Bildungsträger,"im Rathaus Charlottenburg, Otto-Suhr-Allee 100",10585 Berlin,,,,,,,,,,,11:00-14:30,,,,,,,,,,,,,,,,,,,,,,,,,,,,,,,,,,,,,,,,,"BA Charlottenburg-Wilmersdorf von Berlin, Abt. Soziales + Gesundheit",,,902 91 57 56,,,cw801003@charlottenburg-wilmersdorf.de,,0,gemeinnützig,
10,Charlottenburg-Wilmersdorf,Schwedischer Weihnachtsbasar,Landhausstr. 26,10717 Berlin,,,,,,,,,,,,,10:00-19:00,12:00-18:00,,,,,,,,,,,,,,,,,,,,,,,,,,,,,,,,,,,,,,Schwedische Victoriagemeinde,,,864 95 90,,86 49 59 99,berlin@svenskakyrkan.se,www.svenskakyrkan.se,0,gemeinnützig,Die Lichterkönigin Lucia kommt an beiden Tagen um 16:00 Uhr
6,Charlottenburg-Wilmersdorf,Weihnachten in Westend (teilgewerblich),Preußenallee,14052 Berlin,,,,,,,,,,,,,,,,,,,,,,,,,,,,,,,,,,11:00-20:00,11:00-20:00,,,,,,,,,,,,,,,,,Family & Friends e. V.,,,305 55 21,,,kontakt@family-and-friends-eV.de,www.family-and-friends-eV.de,0,teilgewerblich,"das Rüsseltier ist an beiden Tagen unterwegs, Greifvogelschau und Weihnachtskrippe"
20,Charlottenburg-Wilmersdorf,Christmas Fair / A very British Christmas,Preußenallee 17-19,14052 Berlin,,,,,,,,,,,,,,,,,,,,15:00-18:00,,,,,,,,,,,,,,,,,,,,,,,,,,,,,,,,St George's Church,"Preußenallee 17-19, 14052 Berlin",,304 12 80,,,office@stgeorges.de,www.stgeorges.de,0,gemeinnützig,
22,Charlottenburg-Wilmersdorf,Kunsthandwerklicher Weihnachtsmarkt vor dem Bröhanmuseum,Schloßstr. 1-1 A,14059 Berlin,,,,,,,,,,,,,,,,,,,,,,,,,,,,12:00-18:00,,,,,,,,,,,,,,,,,,,,,,,,Kiezbündnis Klausenerplatz e.V.,,,30 82 44 95,,30 82 44 98,info@klausenerplatz.de,www.klausenerplatz.de,0,gemeinnützig,
2,Charlottenburg-Wilmersdorf,Weihnachtsmarkt vor dem Schloss Charlottenburg,Spandauer Damm zwischen Luisenplatz und Klausenerplatz,14059 Berlin,,,,,,,,14:00-22:00,14:00-22:00,14:00-22:00,14:00-22:00,12:00-22:00,12:00-22:00,12:00-22:00,14:00-22:00,14:00-22:00,14:00-22:00,14:00-22:00,12:00-22:00,12:00-22:00,12:00-22:00,14:00-22:00,14:00-22:00,14:00-22:00,14:00-22:00,12:00-22:00,12:00-22:00,12:00-22:00,14:00-22:00,14:00-22:00,14:00-22:00,14:00-22:00,12:00-22:00,12:00-22:00,12:00-22:00,14:00-22:00,14:00-22:00,,12:00-20:00,12:00-20:00,12:00-22:00,12:00-22:00,,,,,,,,,,werbeteam berlin/Tommy Erbe,,,261 20 12,,261 20 22,info@werbeteam-berlin.de,www.werbeteam-berlin.de,0,gewerblich,
8,Charlottenburg-Wilmersdorf,Weihnachtsmarkt Berlin-Grunewald des Johannischen Sozialwerks e. V.,"St.-Michaels-Heim, Bismarckallee 23",14193 Berlin,,,,,,,,,,,,16:00-20:00,14:00-20:00,12:00-18:00,,,,,,,,,,,,,,,,,,,,,,,,,,,,,,,,,,,,,,Johannisches Sozialwerk e.V.,,,89 68 81 88,,89 68 81 85,,www.johannisches-sozialwerk.de,0,gemeinnützig,
4,Charlottenburg-Wilmersdorf,Weihnachtsmarkt in der Fußgängerzone Wilmersdorfer Straße,Wilmersdorfer Straße,10627 Berlin,,,,,,,,,,,,11:00-21:00,11:00-21:00,12:00-20:00,11:00-21:00,11:00-21:00,11:00-21:00,11:00-21:00,11:00-21:00,11:00-21:00,12:00-20:00,11:00-21:00,11:00-21:00,11:00-21:00,11:00-21:00,11:00-21:00,11:00-21:00,12:00-20:00,11:00-21:00,11:00-21:00,11:00-21:00,11:00-21:00,11:00-21:00,11:00-21:00,12:00-20:00,11:00-21:00,11:00-21:00,10:00-14:00,,,11:00-21:00,12:00-20:00,11:00-21:00,,,,,,,,,"Lauenburger, A.",,,0163/495 77 62,,,lauenburger-pony@gmx.de,www.wilmersdorfer-arcaden.de,0,gewerblich,
172,Friedrichshain-Kreuzberg,Weihnachten für Sammler - oldthing Adventsbörse im Kaufhaus,"Galeria Kaufhof Ostbahnhof, 4. Etage, Koppenstr. 8",10243 Berlin,,,,,,,,,,,,,,,,,,,,,,,,,,,,,,,,,,11:00-20:00,13:00-18:00,,,,,,,,,,,,,,,,,oldthing märkte GbR,"Treskowallee 116, 10318 Berlin",,29 00 20 10,,,info@oldthing.de,www.oldthing.de,2,gewerblich,"Eintritt 2 €, Kinder und ab 17:00 frei"
30,Friedrichshain-Kreuzberg,KiezWeihnacht an der Samariterkirche,Samariterplatz/Samariterstr. 14,10247 Berlin,,,,,,,,,,,,,,,,,,,,13:00-20:00,13:00-20:00,,,,,,13:00-20:00,13:00-20:00,,,,,,,,,,,,,,,,,,,,,,,,Samariter-Galiläa-Gemeinde und Die Friedrichshainer,,Steffen Belz,74 77 26 01,,,info@die-friedrichshainer.de,www.kiezweihnacht.de,0,gewerblich,
24,Friedrichshain-Kreuzberg,Traditioneller Weihnachtsbasar im Finnland-Zentrum,Schleiermacherstr. 24a,10961 Berlin,,,,,,12:00-18:00,12:00-18:00,,,,,,,,,,,,,,,,,,,,,,,,,,,,,,,,,,,,,,,,,,,,,Suomi Keskus - Finnlandzentrum e. V.,"Schleiermacherstr. 24a, 10961 Berlin",,781 81 89,,,info@finnlandzentrum.de,www.finnlandzentrum.de,0,gemeinnützig,
26,Friedrichshain-Kreuzberg,Adventsbasar Heilig-Kreuz-Kirche,Zossener Str. 65,10961 Berlin,,,,,,,,,,,,,15:00-18:00,,,,,,,,,,,,,,,,,,,,,,,,,,,,,,,,,,,,,,,Evangelische Kirchengemeinde Heilig Kreuz – Passion,"Zossener Str. 65, 10961 Berlin",,81 49 25 82,691 20 07,,m.schmieder@heiligkreuzpassion.de,www.heiligkreuzpassion.de,0,gemeinnützig,
34,Lichtenberg,Mittelalterlicher Weihnachtsmarkt Karlshorst,Ehrenfelsstr. 7,10318 Berlin,,,,,,,,,,,,,,,,,,,,13:00-22:00,13:00-18:00,,,,,,,,,,,,,,,,,,,,,,,,,,,,,,,iKARUS stadtteilzentrum,,,89 62 25 52,,89 62 35 47,ikarus@sozdia.de,www.ikarus-firmaris.de,0,gemeinnützig,
32,Lichtenberg,21. Lichtenberger Lichtermarkt rund ums Rathaus Lichtenberg,Möllendorffstr. 6,10367 Berlin,,,,,,,,,,,,,,13:00-19:00,,,,,,,,,,,,,,,,,,,,,,,,,,,,,,,,,,,,,,BA Lichtenberg,,Frau Räpricht,902 96 82 05,,,jacqueline.raepricht@lichtenberg.berlin.de,,0,gemeinnützig,
44,Marzahn-Hellersdorf,Interkultureller Weihnachtsmarkt,"Eiche-Center, Wittenberger Str. 67",12689 Berlin,,,,,,,,,,,,,,,,,,,,,,,,,,14:00-18:00,,,,,,,,,,,,,,,,,,,,,,,,,,Vision e. V.,,,60 92 38 05,43 20 88 72,43 20 88 74,vision-ev@gmx.de,,0,gemeinnützig,
42,Marzahn-Hellersdorf,"Weihnachtsmarkt ""Helle Mitte""",Helle Mitte vor dem Rathaus,12627 Berlin,,,,,,,,,,,,11:00-21:00,11:00-21:00,11:00-21:00,11:00-21:00,11:00-21:00,11:00-21:00,11:00-21:00,11:00-21:00,11:00-21:00,11:00-21:00,11:00-21:00,11:00-21:00,11:00-21:00,11:00-21:00,11:00-21:00,11:00-21:00,11:00-21:00,11:00-21:00,11:00-21:00,11:00-21:00,11:00-21:00,11:00-21:00,11:00-21:00,11:00-21:00,11:00-21:00,11:00-21:00,,,,,,,,,,,,,,,"Wollenschlaeger, Thilo-Harry",,,0163/400 05 00,03322/428 82 45,03322/423 41 39,info@wollenschlaeger-berlin.de,www.wollenschlaeger-berlin.de,0,gewerblich,
40,Marzahn-Hellersdorf,Weihnachtsmarkt im Spree Center Berlin-Hellersdorf,Hellersdorfer Str. 77-83,12619 Berlin,,,,,,,,09:00-19:30,09:00-19:30,09:00-19:30,09:00-19:30,09:00-19:30,09:00-18:00,,09:00-19:30,09:00-19:30,09:00-19:30,09:00-19:30,09:00-19:30,09:00-18:00,13:00-18:00,09:00-19:30,09:00-19:30,09:00-19:30,09:00-19:30,09:00-19:30,09:00-18:00,,09:00-19:30,09:00-19:30,09:00-19:30,09:00-19:30,09:00-19:30,09:00-18:00,13:00-18:00,09:00-19:30,09:00-19:30,09:00-14:00,,,,,,,,,,,,,,"Spree Center Berlin-Hellersdorf, 1.-3. Tranche GbR",,"Wolfgang Kohlberg, Centermanager",56 88 08 - 0,,56 88 08 88,post@spree-center.de,www.spree-center.de,0,gewerblich,
38,Marzahn-Hellersdorf,Weihnachtsmarkt im EASTGATE Berlin,Marzahner Promenade 1 A,12679 Berlin,,,,,,,,10:00-20:00,10:00-20:00,10:00-20:00,10:00-20:00,10:00-21:00,10:00-21:00,,10:00-20:00,10:00-20:00,10:00-20:00,10:00-20:00,10:00-21:00,10:00-21:00,13:00-18:00,10:00-20:00,10:00-20:00,10:00-20:00,10:00-20:00,10:00-21:00,10:00-21:00,,10:00-20:00,10:00-20:00,10:00-20:00,10:00-20:00,10:00-21:00,10:00-21:00,13:00-18:00,10:00-20:00,10:00-20:00,10:00-14:00,,,,,,,,,,,,,,ECE Projektmanagement GmbH & Co. KG,,,911 45 90,,911 45 91 11,info@eastgate-berlin.de,www.eastgate-berlin.de,0,gewerblich,
36,Marzahn-Hellersdorf,Weihnachtsmarkt im Marktplatz Center Hellersdorf,Stendaler Str. 24,12627 Berlin,,,,,,,,10:00-20:00,10:00-20:00,10:00-20:00,10:00-20:00,10:00-20:00,10:00-20:00,,10:00-20:00,10:00-20:00,10:00-20:00,10:00-20:00,10:00-20:00,10:00-20:00,13:00-18:00,10:00-20:00,10:00-20:00,10:00-20:00,10:00-20:00,10:00-20:00,10:00-20:00,,10:00-20:00,10:00-20:00,10:00-20:00,10:00-20:00,10:00-20:00,10:00-20:00,13:00-18:00,10:00-20:00,10:00-20:00,09:00-14:00,,,,,,,,,,,,,,MEC METRO-ECE Centermanagement GmbH & Co. KG,,,99 28 84 – 0,,992 88 42 50,,,0,gewerblich,
54,Mitte,Fabelhafte Weihnachten im Sony Center am Potsdamer Platz,Bellevuestr. 5,10785 Berlin,,,,,,,,,,,,,14:00-22:00,,,,,14:00-22:00,14:00-22:00,14:00-22:00,,,,,14:00-22:00,14:00-22:00,14:00-22:00,,,,,14:00-22:00,14:00-22:00,14:00-22:00,,,,,14:00-22:00,14:00-22:00,14:00-22:00,,,,,14:00-22:00,14:00-22:00,14:00-22:00,,,,Forum Event Management GmbH,,,25 75 16 05,,25 75 16 40,event.berlin@forum-event.de,www.sonycenter.de,0,gewerblich,"Wunderschöne Lichtkunst, fabelhafte Wesen und tägliche Live-Shows mit einer zauberhaften Fee verwandeln das Sony Center in einen magischen Ort"
50,Mitte,Wintertraum am ALEXA,Dircksenstraße zwischen Voltairestraße und Schicklerstraße,10179 Berlin,,,,,,,,13:00-22:00,13:00-22:00,13:00-22:00,13:00-22:00,13:00-22:00,12:00-22:00,12:00-22:00,13:00-22:00,13:00-22:00,13:00-22:00,13:00-22:00,13:00-22:00,12:00-22:00,12:00-22:00,13:00-22:00,13:00-22:00,13:00-22:00,13:00-22:00,13:00-22:00,12:00-22:00,12:00-22:00,13:00-22:00,13:00-22:00,13:00-22:00,13:00-22:00,13:00-22:00,12:00-22:00,12:00-22:00,13:00-22:00,13:00-22:00,13:00-22:00,13:00-22:00,13:00-22:00,12:00-22:00,12:00-22:00,,,,,,,,,,Charles Blume Vergnügungsbetriebe GmbH,27798 Hude,,04408/80 63 73,,04408/80 63 74,blume-service@t-online.de,www.blume-service.de,0,gewerblich,
52,Mitte,WeihnachtsZauber Gendarmenmarkt,Gendarmenmarkt,10117 Berlin,,,,,,,,11:00-22:00,11:00-22:00,11:00-22:00,11:00-22:00,11:00-22:00,11:00-22:00,11:00-22:00,11:00-22:00,11:00-22:00,11:00-22:00,11:00-22:00,11:00-22:00,11:00-22:00,11:00-22:00,11:00-22:00,11:00-22:00,11:00-22:00,11:00-22:00,11:00-22:00,11:00-22:00,11:00-22:00,11:00-22:00,11:00-22:00,11:00-22:00,11:00-22:00,11:00-22:00,11:00-22:00,11:00-22:00,11:00-22:00,11:00-22:00,11:00-18:00,11:00-22:00,11:00-22:00,11:00-22:00,11:00-22:00,11:00-22:00,11:00-22:00,11:00-18:00,,,,,,,WeihnachtsZauber Gendarmenmarkt GmbH Helmut Russ und Gunda Kniep,,,20 91 26 32,0172/456 22 55,20 91 26 33,info@weihnachtsmarkt-berlin.de,www.weihnachtszauber-berlin.de,12,gewerblich,"Eintritt 1 €,  Mo-Fr  11:00-14:00 Eintritt frei (außer am 24.12., 25.12., 26.12., 31.12.), Silvesterfeier 19:00-01:00, Eintritt 12 €"
48,Mitte,7. Berliner Weihnachtszeit vor dem Roten Rathaus,Rathausstr. 15,10178 Berlin,,,,,,,,12:00-22:00,12:00-22:00,12:00-22:00,12:00-22:00,12:00-22:00,11:00-22:00,11:00-22:00,12:00-22:00,12:00-22:00,12:00-22:00,12:00-22:00,12:00-22:00,11:00-22:00,11:00-22:00,12:00-22:00,12:00-22:00,12:00-22:00,12:00-22:00,12:00-22:00,11:00-22:00,11:00-22:00,12:00-22:00,12:00-22:00,12:00-22:00,12:00-22:00,12:00-22:00,11:00-22:00,11:00-22:00,12:00-22:00,12:00-22:00,,11:00-21:00,11:00-21:00,11:00-22:00,11:00-22:00,,,,,,,,,,Laubinger Veranstaltungsagentur,,,0163/481 48 40,,,info@laubinger.de,www.berlinerweihnachtszeit.de,0,gewerblich,
46,Mitte,Nostalgischer Weihnachtsmarkt am Schlossplatz,Schlossplatz 1,10178 Berlin,,,,,,,,12:00-21:30,12:00-21:30,12:00-21:30,12:00-21:30,11:00-22:30,11:00-22:30,11:00-21:30,12:00-21:30,12:00-21:30,12:00-21:30,12:00-21:30,11:00-22:30,11:00-22:30,11:00-21:30,12:00-21:30,12:00-21:30,12:00-21:30,12:00-21:30,11:00-22:30,11:00-22:30,11:00-21:30,12:00-21:30,12:00-21:30,12:00-21:30,12:00-21:30,11:00-22:30,11:00-22:30,11:00-21:30,12:00-21:30,12:00-21:30,,11:00-21:00,11:00-21:00,11:00-22:30,11:00-21:30,,,,,,,,,,Nostalgischer Weihnachtsmarkt,, Joseph Nieke,20 25 35 80,0151/15 10 92 20,,info@berliner-weihnacht.de,www.joseph-nieke.de,0,gewerblich,
64,Mitte,19. Berliner Umwelt- und Weihnachtsmarkt 2014,Sophienstraße in Mitte,10178 Berlin,,,,,,,,,,,,,12:00-20:00,11:00-19:00,,,,,,12:00-20:00,11:00-19:00,,,,,,12:00-20:00,11:00-19:00,,,,,,12:00-20:00,11:00-19:00,,,,,,,,,,,,,,,,,EVENTS - Ralf Bielefeldt,,,48 49 62 27,0177/688 22 45,32 51 98 53,post@weihnachtsmarkt-sophienstrasse.de,www.weihnachtsmarkt-sophienstrasse.de,0,gewerblich,
56,Mitte,Adventsbasar,"vor und in der Heilandskirche Moabit, Thusnelda-Allee 1",10555 Berlin,,,,,,,,,,,,,10:00-15:00,,,,,,,,,,,,,,,,,,,,,,,,,,,,,,,,,,,,,,,Ev. Kirchengemeinde Moabit West,"Thusnelda-Allee 1, 10555 Berlin-Moabit",,30 30 69 88 – 0,,30 30 69 88 - 2,thusnelda1@kgmoabit-west.de,www.kgmoabit-west.de,0,gemeinnützig,
66,Mitte,Weihnachtsmarkt am Hauptbahnhof,Washingtonplatz,10557 Berlin,,,,,,,,14:00-22:00,14:00-22:00,14:00-22:00,14:00-22:00,14:00-22:00,14:00-22:00,14:00-22:00,14:00-22:00,14:00-22:00,14:00-22:00,14:00-22:00,14:00-22:00,14:00-22:00,14:00-22:00,14:00-22:00,14:00-22:00,14:00-22:00,14:00-22:00,14:00-22:00,14:00-22:00,14:00-22:00,14:00-22:00,14:00-22:00,14:00-22:00,14:00-22:00,14:00-22:00,14:00-22:00,14:00-22:00,,,,,,,,,,,,,,,,,Acksteiner Events,,,28 48 78 30,,28 48 78 31,info@acksteinerevents.de,www.acksteinerevents.de,0,gewerblich,"Chöre mit nationaler und internationaler Weihnachtsmusik: täglich 18:00 und 19:00 Uhr, an den Advents-Sonntagen auch 16:00 und 17:00 Uhr"
70,Neukölln,Nordische Märchenweihnacht - Weihnachtsmarkt auf dem Gutshof des Schlosses Britz,Alt-Britz 73,12359 Berlin,,,,,,,,,,,,,,,,,,,,,,,,,,14:00-21:00,11:00-21:00,11:00-21:00,,,,,14:00-21:00,11:00-21:00,11:00-21:00,,,,,,,,,,,,,,,,,Kulturstiftung Schloss Britz,,,60 97 92 30,,609 79 23 39,info@schlossbritz.de,www.schlossbritz.de,3,gewerblich,"Eintritt 3 €, ermäßigt 2 €, Kinder unter 6 Jahren und Anwohner frei, www.cocolorus-diaboli.de"
74,Neukölln,Adventsmarkt an der Britzer Dorfkirche ,Backbergstr. 38 ,12359 Berlin,,,,,,,,,,,,,,11:00-18:00,,,,,,,,,,,,,,,,,,,,,,,,,,,,,,,,,,,,,,Ev. Dorfkirchengemeinde Berlin-Britz,,,606 29 12,,63 41 39 00,dorfkirchebritz@t-online.de,www.dorfkirchebritz.de,0,gemeinnützig,
78,Neukölln,Weihnachten im Körnerpark,Körnerpark,12051 Berlin,,,,,,,,,,,,,,,,,,,,,,,,,,,14:00-18:00,,,,,,,,,,,,,,,,,,,,,,,,,"QM, Körnerpark","Emser Str. 15, 12051 Berlin",,62 98 87 90,,629 88 79 10,team@qm-koernerpark.de,www.qm-koernerpark.de,0,gemeinnützig,
72,Neukölln,Adventsbasar in Neu-Buckow,Marienfelder Chaussee 66-72,12349 Berlin,,,,,,,,,,,,,13:00-18:00,,,,,,,,,,,,,,,,,,,,,,,,,,,,,,,,,,,,,,,Evangelische Kirchengemeinde Neu-Buckow,,,74 20 08 21,,,buero@neu-buckow.de,,0,gemeinnützig,
76,Neukölln,Alt-Rixdorfer Weihnachtsmarkt,Richardplatz,12055 Berlin,,,,,,,,,,,,,,,,,,,17:00-21:00,14:00-21:00,14:00-20:00,,,,,,,,,,,,,,,,,,,,,,,,,,,,,,,BA Neukölln,,Christian Bärmann,902 39 25 53,,902 39 34 70,,www.berlin.de/ba-neukoelln/org/arw/arw.index.html,0,gemeinnützig,
90,Pankow,Nikolausmarkt auf dem Kinderbauernhof Pinkepanke,"Am Bürgerpark 15-18, S-Bhf. Wollankstraße ",13156 Berlin,,,,,,,,,,,,,,,,,,,,14:00-18:00,,,,,,,,,,,,,,,,,,,,,,,,,,,,,,,,,,Rose,0177/464 16 75,,,,,0,gemeinnützig,
80,Pankow,Weihnachtsmarkt Schönhauser Allee Arcaden,Schönhauser Allee 78-80,10439 Berlin,,,,,,,,10:00-21:00,10:00-21:00,10:00-21:00,10:00-21:00,10:00-21:00,10:00-21:00,,10:00-21:00,10:00-21:00,10:00-21:00,10:00-21:00,10:00-21:00,10:00-21:00,13:00-18:00,10:00-21:00,10:00-21:00,10:00-21:00,10:00-21:00,10:00-21:00,10:00-21:00,,10:00-21:00,10:00-21:00,10:00-21:00,10:00-21:00,10:00-21:00,10:00-21:00,13:00-18:00,10:00-21:00,10:00-21:00,10:00-14:00,,,,,,,,,,,,,,,,Center-Management,44 71 17 11,,,,www.schoenhauser-allee-arcaden.de,0,gewerblich,
88,Pankow,Adventsökomarkt und Ökomarkt der GRÜNEN LIGA am Kollwitzplatz,Wörther Straße / Kollwitz- bis Knaackstraße,10405 Berlin,,,,,,,,,,,,,,12:00-19:00,,,,,,,12:00-19:00,,,,,,,12:00-19:00,,,,,,,12:00-19:00,,,,,,,,,,,,,,,,,E. Westphal/GRÜNE LIGA BERLIN e. V.,"Prenzlauer Allee 8, 10405 Berlin",,44 33 91 48,,44 33 91 33,oekomarkt.kollwitzplatz@grueneliga.de,www.grueneliga-berlin.de,0,gewerblich,
94,Reinickendorf,Weihnachtsmarkt in den Hallen Am Borsigturm,"Am Borsigturm 2, Einkaufscenter",13507 Berlin ,,,,,,,,10:00-20:00,10:00-20:00,10:00-20:00,10:00-20:00,10:00-20:00,10:00-20:00,,10:00-20:00,10:00-20:00,10:00-20:00,10:00-20:00,10:00-20:00,10:00-20:00,13:00-18:00,10:00-20:00,10:00-20:00,10:00-20:00,10:00-20:00,10:00-20:00,10:00-20:00,,10:00-20:00,10:00-20:00,10:00-20:00,10:00-20:00,10:00-20:00,10:00-20:00,13:00-18:00,10:00-20:00,10:00-20:00,10:00-14:00,,,,,,,,,,,,,,Werbegemeinschaft Hallen am Borsigturm,,Center Manager: Herr Wilhelm,72 62 66 00,,,info@hallenamborsigturm.de,www.hallenamborsigturm.de,0,gewerblich,
92,Reinickendorf,"Weihnachtsmarkt im EKZ ""Der Clou"" - Weihnachtsaktion im Einkaufszentrum ""Der Clou""",am Kurt-Schumacher-Platz,13405 Berlin,10:00-20:00,10:00-20:00,10:00-20:00,10:00-20:00,10:00-20:00,10:00-20:00,,10:00-20:00,10:00-20:00,10:00-20:00,10:00-20:00,10:00-20:00,10:00-20:00,,10:00-20:00,10:00-20:00,10:00-20:00,10:00-20:00,10:00-20:00,10:00-20:00,13:00-18:00,10:00-20:00,10:00-20:00,10:00-20:00,10:00-20:00,10:00-20:00,10:00-20:00,,10:00-20:00,10:00-20:00,10:00-20:00,10:00-20:00,10:00-20:00,10:00-20:00,13:00-18:00,10:00-20:00,10:00-20:00,10:00-14:00,,,,,,,,,,,,,,"Einkaufszentrums ""Der Clou""",,Center-Management,49 87 20 96,,495 27 63,info@derclouberlin.de,www.derclouberlin.de,0,gewerblich,"""Himmelsbäckerei"" für Kinder 01.12. - 19.12. jeweils 10:00, 11:00, 16:00 und 17:00 nach vorheriger Anmeldung im Büro des Center-Managements"
96,Reinickendorf,Adventsmarkt der Evangelischen Kirchengemeinde Alt-Wittenau,Dorfaue,13437 Berlin,,,,,,,,,,,,,14:00-17:30,,,,,,,,,,,,,,,,,,,,,,,,,,,,,,,,,,,,,,,Evangelische Kirchengemeinde Alt-Wittenau,Gemeindebüro: Alt-Wittenau 29,,43 72 12 62,,43 72 12 66,,,0,gemeinnützig,
98,Reinickendorf,Weihnachtsmarkt vor der Johanneskirche Frohnau,Zeltinger Platz 18,13465 Berlin,,,,,,,,,,,,,,14:00-18:00,,,,,,,,,,,,,,,,,,,,,,,,,,,,,,,,,,,,,,Johanneskirche Frohnau,,,401 20 33,,401 20 79,post@ekg-frohnau.de,www.ekg-frohnau.de,0,gemeinnützig,
106,Spandau,Sozialer Weihnachtsmarkt von Goldnetz,Földerichplatz,13595 Berlin,,,,,,,,,,,,,,,,,,,,14:00-20:00,,,,,,,,,,,,,,,,,,,,,,,,,,,,,,,,Goldnetz gGmbH,,,28 88 37 77,,28 88 37 35,spenden@goldnetz-berlin.de,www.goldnetz-berlin.de,0,gemeinnützig,
108,Spandau,27. Kladower Christkindlmarkt,Imchenplatz,14089 Berlin,,,,,,,,,,,,,,,,,,,,12:00-19:00,12:00-19:00,,,,,,,,,,,,,,,,,,,,,,,,,,,,,,,Cladower Dorf Union e. V.,,,331 23 22,,,,www.kladower-christkindlmarkt.de,0,gemeinnützig,
104,Spandau,Weihnachtsmarkt im Evangelischen Johannesstift,Schönwalder Allee 26,13587 Berlin,,,,,,,,,,,,,,10:30-18:00,,,,,,,,,,,,,,,,,,,,,,,,,,,,,,,,,,,,,,Evangelisches Johannesstift,,,33 60 96 70,,33 60 95 06,info@Evangelisches-Johannesstift.de,www.evangelisches-johannesstift.de,0,gemeinnützig,
100,Spandau,41. Traditioneller Spandauer Weihnachtsmarkt,Spandauer Altstadt,13597 Berlin,,,,,,,,11:00-20:00,11:00-20:00,11:00-20:00,11:00-20:00,11:00-21:00,11:00-22:00,11:00-20:00,11:00-20:00,11:00-20:00,11:00-20:00,11:00-20:00,11:00-21:00,11:00-22:00,11:00-20:00,11:00-20:00,11:00-20:00,11:00-20:00,11:00-20:00,11:00-21:00,11:00-22:00,11:00-20:00,11:00-20:00,11:00-20:00,11:00-20:00,11:00-20:00,11:00-21:00,11:00-22:00,11:00-20:00,11:00-20:00,11:00-20:00,,,,,,,,,,,,,,,Partner für Spandau Gesellschaft für Bezirksmarketing mbH,,Herr Dettmann,36 75 72 61,,35 30 23 32,info@partner-fuer-spandau.de,www.spandauer-weihnachtsmarkt.de,0,gewerblich,
102,Spandau,44. Spandauer Weihnachtstraum,vor dem Rathaus Spandau,13597 Berlin,,,,,,,,,,11:00-21:00,11:00-21:00,11:00-22:00,11:00-22:00,10:00-21:00,11:00-21:00,11:00-21:00,11:00-21:00,11:00-21:00,11:00-22:00,11:00-22:00,10:00-21:00,11:00-21:00,11:00-21:00,11:00-21:00,11:00-21:00,11:00-22:00,11:00-22:00,10:00-21:00,11:00-21:00,11:00-21:00,11:00-21:00,11:00-21:00,11:00-22:00,11:00-22:00,10:00-21:00,11:00-21:00,11:00-21:00,,11:00-21:00,11:00-22:00,11:00-22:00,10:00-21:00,,,,,,,,,,"Wollenschlaeger, Thilo-Harry",,,0163/400 05 00,03322/428 82 45,03322/423 41 39,info@wollenschlaeger-berlin.de,www.wollenschlaeger-berlin.de,0,gewerblich,
120,Steglitz-Zehlendorf,Weihnachtsmarkt auf dem Ferdinandmarkt,Ferdinandstr. 34-35,12209 Berlin,,,,,,,,,,,,,,11:00-19:00,,,,,,,,,,,,,,,,,,,,,,,,,,,,,,,,,,,,,,Müller-Degenhardt & Degenhardt Marktstandvermietung GbR,,,824 20 45,,824 20 47,info@gv-degenhardt.de,www.gv-degenhardt.de,0,gewerblich,
130,Steglitz-Zehlendorf,Adventsbasar im Gemeindehaus St. Michael,Hohenzollernstr. 28,14109 Berlin,,,,,,15:00-19:30,09:00-15:00,,,,,,,,,,,,,,,,,,,,,,,,,,,,,,,,,,,,,,,,,,,,,Katholische Kirchengemeinde Zu den hl. Zwölf Aposteln Berlin,,,805 86 29 70,,,pfarrbuero@hl-12-apostel.de,www.hl-12-apostel.de,0,gemeinnützig,
134,Steglitz-Zehlendorf,Weihnachtsmarkt der Wilhelmplatz-Initiative und der Ev. Kirchengemeinde Wannsee,"Kirche am Stölpchensee, Auf dem Wilhelmplatz",14109 Berlin,,,,,,,,,,,,,,13:00-18:00,,,,,,,,,,,,,,,,,,,,,,,,,,,,,,,,,,,,,,Evangelische Kirchengemeinde Berlin-Wannsee,,,805 16 50,,,KGWannsee@freenet.de,www.wannseebote.ekbo.de,0,gemeinnützig,
132,Steglitz-Zehlendorf,Großer Adventsbasar im Gemeindehaus,Kirchweg 6,14129 Berlin,,,,,,,,,,,,,11:00-18:00,,,,,,,,,,,,,,,,,,,,,,,,,,,,,,,,,,,,,,,Evangelische Kirchengemeinde Nikolassee,,,80 19 76 30,,,webmaster@gemeinde-nikolassee.de,www.gemeinde-nikolassee.de,0,gemeinnützig,
118,Steglitz-Zehlendorf,Adventsmarkt auf der Domäne Dahlem,Königin-Luise-Str. 49,14195 Berlin,,,,,,,,,,,,,11:00-19:00,11:00-19:00,,,,,,11:00-19:00,11:00-19:00,,,,,,11:00-19:00,11:00-19:00,,,,,,11:00-19:00,11:00-19:00,,,,,,,,,,,,,,,,,Domäne Dahlem Veranstaltungsgesellschaft mbH,,,66 63 00 10,,66 63 00 20,kontakt@domaene-dahlem.de,www.domaene-dahlem.de,2,gewerblich,"Eintritt 2 €, ermäßigt 1 € (Auszubildende, Studierende, Freiwilligendienst-Leistende, berlinpass-Inhaber, Schwerbehinderte ab 80 %), freier Eintritt für Kinder und Jugendliche bis 16 Jahre"
128,Steglitz-Zehlendorf,Advent-Künstlerstation am Bahnhof Mexikoplatz,Platz vor dem Bahnhof Mexikoplatz,14163 Berlin,,,,,,,,,,,,,,11:00-19:00,,,,,,,11:00-19:00,,,,,,,11:00-19:00,,,,,,,11:00-19:00,,,,,,,,,,,,,,,,,"Martin, Ramona",,,802 87 79,,,,,0,gewerblich,
136,Steglitz-Zehlendorf,Das Weihnachtshaus in der Villa Donnersmarck,Schädestr. 9-13,14165 Berlin,,,,,,,,,,,,,,,,,,,,,,,,,,,,15:00-19:00,,,,,,,,,,,,,,,,,,,,,,,,Villa Donnersmarck/Fürst-Donnersmarck-Stiftung,,,847 18 70,,84 71 87 23,villadonnersmarck@fdst.de,www.villadonnersmarck.de,0,gemeinnützig,
110,Steglitz-Zehlendorf,Steglitzer Weihnachtsmarkt vor dem Forum Steglitz,Schloßstr. 1,12163 Berlin,,,,,,,,10:30-21:00,10:30-21:00,10:30-21:00,10:30-21:00,10:30-21:00,10:30-21:00,10:30-21:00,10:30-21:00,10:30-21:00,10:30-21:00,10:30-21:00,10:30-21:00,10:30-21:00,10:30-21:00,10:30-21:00,10:30-21:00,10:30-21:00,10:30-21:00,10:30-21:00,10:30-21:00,10:30-21:00,10:30-21:00,10:30-21:00,10:30-21:00,10:30-21:00,10:30-21:00,10:30-21:00,10:30-21:00,10:30-21:00,10:30-21:00,10:30-21:00,10:30-21:00,10:30-21:00,10:30-21:00,10:30-21:00,10:30-21:00,10:30-21:00,10:30-21:00,10:30-21:00,10:30-21:00,10:30-21:00,10:30-21:00,10:30-21:00,10:30-21:00,Schausteller- und Gastronomiebetriebe Laurence Blume,,,0151/24 11 78 50,,815 20 85,lb@blume-events.de,www.blume-events.de,0,gewerblich,
154,Tempelhof-Schöneberg,38. Lichtenrader Lichtermarkt,"Alt-Lichtenrade, rund um den Dorfteich (Giebel-Pfuhl)",12305 Berlin,,,,,,,,,,,,,,13:00-19:00,,,,,,,,,,,,,,,,,,,,,,,,,,,,,,,,,,,,,,BA Tempelhof-Schöneberg,,Frau Barnekow,902 77 23 01,,902 77 22 20,,,0,gemeinnützig,
152,Tempelhof-Schöneberg,20. Weihnachtsmarkt auf Lehmanns Bauernhof,Alt-Marienfelde 35-37,12277 Berlin,,,,,,,,,,,,,,,,,,,14:00-20:00,12:00-20:00,12:00-20:00,,,,,14:00-20:00,12:00-20:00,12:00-20:00,,,,,,,,,,,,,,,,,,,,,,,,Lehmanns Bauernmarkt,,,72 01 41 50,0179/958 05 15,72 01 41 49,Lehmanns-Bauernmarkt@gmx.de,www.lehmanns-bauernmarkt.de,0,gewerblich,
156,Tempelhof-Schöneberg,30. Marienfelder Weihnachtsmarkt des TSV Marienfelde 1890 e. V.,"Alte Feuerwache, Alt-Marienfelde 36",12277 Berlin,,,,,,,,,,,,,,,,,,,,,12:00-19:00,,,,,,,,,,,,,,,,,,,,,,,,,,,,,,,TSV Marienfelde 1890 e. V.,,,722 45 46,,74 30 59 65,sport@tsv-marienfelde.de,www.tsv-marienfelde.de,0,gemeinnützig,mit Beteiligung der Marienfelder Kyffhäuser
158,Tempelhof-Schöneberg,8. Friedenauer Engelmarkt,Breslauer Platz am Rathaus Friedenau,12159 Berlin,,,,,,,,,,,,,,,,,,,,,13:00-18:00,,,,,,,,,,,,,,,,,,,,,,,,,,,,,,,"Friedenau-Netzwerk, Magrit Knapp",,,852 33 56,,,Magrit.knapp@friedenau-netzwerk.de,www.friedenau-netzwerk.de,0,gemeinnützig,
140,Tempelhof-Schöneberg,Adventsmarkt in der Lokhalle,"Lokhalle im Natur-Park Schöneberger Südgelände, S-Bahnhof Priesterweg",12157 Berlin,,,,,,,,,,,,,,12:00-18:00,,,,,,,12:00-18:00,,,,,,,,,,,,,,,,,,,,,,,,,,,,,,,Grün Berlin GmbH,,,70 09 06 24,,70 09 06 70,info@suedgelaende.de,www.gruen-berlin.de,0,gewerblich,
148,Tempelhof-Schöneberg,25. Weihnachtsmarkt auf dem Winterfeldtplatz,Winterfeldtplatz ,10785 Berlin,,,,,,,,,,,,,,11:00-19:00,,,,,,,11:00-19:00,,,,,,,11:00-19:00,,,,,,,11:00-19:00,,,,,,,,,,,,,,,,,Trostdorff,,,215 65 39,0172/301 51 81,215 65 39,trostdorff@web.de,www.weihnachtsmarkt-winterfeldtplatz.de,0,gewerblich,
170,Treptow-Köpenick,Weihnachtsmarkt von der Bühne Grünau e.V.,"An der Grünauer Friedenskirche, Don-Ugoletti-Platz",12527 Berlin,,,,,,,,,,,,,,,,,,,,,14:00-19:00,,,,,,,,,,,,,,,,,,,,,,,,,,,,,,,Bühne Grünau e. V.,,Dr. Kurt Kann,67 82 14 40,0151/70 18 01 68,,,,0,gemeinnützig,
166,Treptow-Köpenick,Müggelheimer Weihnachtsmarkt,Dorfanger Müggelheim (westl. Teil),12559 Berlin,,,,,,,,,,,,,10:00-20:00,,,,,,,,,,,,,,,,,,,,,,,,,,,,,,,,,,,,,,,Müggelheimer Heimatverein e. V.,,,659 86 13,,,Mueggelheimer-heimatverein@gmx.de,www.mueggelheimer-heimatverein.de,0,gemeinnützig,
164,Treptow-Köpenick,Lichtermarkt an der Christuskirche,Firlstr. 16,12459 Berlin,,,,,,,,,,,,,14:00-18:00,,,,,,,,,,,,,,,,,,,,,,,,,,,,,,,,,,,,,,,Evangelische Kirchengemeinde Berlin-Oberschöneweide,,Herr Noak,97 60 14 17,535 31 55,,gemeinde@ev-kirche-oberschoeneweide.de,www.ev-kirche-oberschoeneweide.de,0,gemeinnützig,"14:00 Eröffnung mit Bläserensemble Köpenick, 15:00 Basteln im Musikzimmer der Kirche, 15:30 Märchenstunde in der Taufkapelle, 18:00 Adventskonzert mit dem Köpenicker Chor ""Sing! Sing!"""
162,Treptow-Köpenick,Weihnachtsmarkt Friedrichshagen Bölschestraße,Marktplatz Bölschestraße,12587 Berlin,,,,,,,,,,,,,,,,,,,,,,,,,,,,,,,,,,09:00-22:00,11:00-20:00,,,,,,,,,,,,,,,,,"Hirche, Wolfgang",15370 Vogelsdorf,,033439/779 79,0172/309 49 77,033439/779 80,Markt-Hirche@web.de,,0,gewerblich,
168,Treptow-Köpenick,5. Altglienicker Advents-Markt,"Rund um die Pfarrkirche, Semmelweisstr. 2",12524 Berlin,,,,,,,,,,,,,,14:00-19:00,,,,,,,,,,,,,,,,,,,,,,,,,,,,,,,,,,,,,,Evangelische Kirchengemeinde Altglienicke und Bürgerverein Altglienicke e. V.,,,672 83 81,,,buergerverein@altglienicke.de,www.altglienicke.de,0,gemeinnützig,
160,Treptow-Köpenick,"Weihnachtsmarkt in den Späth'schen Baumschulen, Lichterglanz im Tannenwald - präsentiert von radioBERLIN 88,8",Späthstr. 80/81,12437 Berlin,,,,,,,,,,,,,,,,,,,15:00-20:00,11:00-20:00,11:00-20:00,,,,,,,,,,,,,,,,,,,,,,,,,,,,,,,Späth'sche Baumschulen Handel GmbH,,,63  90 03 32,,,info@spaethsche-baumschulen.de,www.spaethsche-baumschulen.de,3,gewerblich,"Eintritt 3 €, Kinder bis 16 Jahre frei, Die Späth'schen Baumschulen spenden pro verkaufter Eintrittskarte 1 € an das Kinderschutz-Zentrum Berlin. Lichterglanz im Tannenwald - präsentiert von radio BERLIN 88,8"
1000,Pankow,Lucia Weihnachtsmarkt in der Kulturbrauerei,Knaackstraße 97,10435 Berlin,,,,,,,,15:00-22:00,15:00-22:00,15:00-22:00,15:00-22:00,15:00-22:00,13:00-22:00,13:00-22:00,15:00-22:00,15:00-22:00,15:00-22:00,15:00-22:00,15:00-22:00,13:00-22:00,13:00-22:00,15:00-22:00,15:00-22:00,15:00-22:00,15:00-22:00,15:00-22:00,13:00-22:00,13:00-22:00,15:00-22:00,15:00-22:00,15:00-22:00,15:00-22:00,15:00-22:00,13:00-22:00,13:00-22:00,15:00-22:00,,,,,,,,,,,,,,,,"Fête Company, Simone Hofmann","Wallstr. 15a, 10179 Berlin",,0177-3014657,,,jul@lucia-weihnachtsmarkt.de,http://lucia-weihnachtsmarkt.de,0,,
